{"type":"FeatureCollection","features":[{"type":"Feature","properties":{"sggCode":"11110","sggName":"종로구","source":"LSMD_ADM_SECT_UMD_11_202607","legalDongCount":87,"legalDongNames":["가회동","견지동","경운동","계동","공평동","관수동","관철동","관훈동","교남동","교북동","구기동","궁정동","권농동","낙원동","내수동","내자동","누상동","누하동","당주동","도렴동","돈의동","동숭동","명륜1가","명륜2가","명륜3가","명륜4가","묘동","무악동","봉익동","부암동","사간동","사직동","삼청동","서린동","세종로","소격동","송월동","송현동","수송동","숭인동","신교동","신문로1가","신문로2가","신영동","안국동","연건동","연지동","예지동","옥인동","와룡동","운니동","원남동","원서동","이화동","익선동","인사동","인의동","장사동","재동","적선동","종로1가","종로2가","종로3가","종로4가","종로5가","종로6가","중학동","창성동","창신동","청운동","청진동","체부동","충신동","통의동","통인동","팔판동","평동","평창동","필운동","행촌동","혜화동","홍지동","홍파동","화동","효자동","효제동","훈정동"]},"geometry":{"type":"MultiPolygon","coordinates":[[[[126.96853105695904,37.567669617607535],[126.96847453200803,37.56761249716177],[126.96843414083357,37.56757190533635],[126.96833523396954,37.5674715705485],[126.96826418188732,37.56740042653762],[126.96816955196422,37.5673048230016],[126.96810879605965,37.567243646734454],[126.96806461519202,37.56719907133908],[126.96797655905411,37.567110308009596],[126.96789731670037,37.567030268691084],[126.9678345021923,37.56696685724252],[126.96771209784517,37.56684347694237],[126.96765417129849,37.56678479698474],[126.96759951449069,37.56672948763432],[126.96757442064573,37.566703955419676],[126.96756225842032,37.56669152729164],[126.96754993779926,37.566678954958604],[126.96734509047653,37.5664744075013],[126.9672774235612,37.566405606434756],[126.96726958315283,37.566397765560744],[126.96717794298607,37.566304270394504],[126.96709769603855,37.56622188766631],[126.96700236765996,37.56612556218175],[126.9668860643039,37.56600782297993],[126.96688057789174,37.56600085672893],[126.96686318770398,37.565986030364],[126.96683122779332,37.56595194559125],[126.96669788485428,37.56582129002696],[126.96659835818224,37.56591905393338],[126.96654734339013,37.56596927795681],[126.96651779895681,37.5659983350933],[126.96641745660709,37.56609663018559],[126.96627640391111,37.566234727729366],[126.96623185501511,37.56627806999121],[126.96621246842764,37.566296426341545],[126.96610896654113,37.56639633299108],[126.96600567930487,37.566496518919074],[126.96580725031775,37.566680143587355],[126.9655745682342,37.56691279829306],[126.96556096692116,37.56692782263836],[126.96538609504394,37.56710214654675],[126.96521750848798,37.56729140150053],[126.96503402967144,37.567494679994546],[126.96485735617875,37.56769072537345],[126.96467667262056,37.567891175062606],[126.96459077002679,37.567986445753974],[126.9644769179348,37.56810919676677],[126.96447553543173,37.56811235880172],[126.96447359923125,37.56811361957775],[126.96434232654634,37.56825913296279],[126.96427121475912,37.568336757713126],[126.96414471918045,37.568479902780815],[126.9641154773732,37.56851109474101],[126.96406014224424,37.568569857665736],[126.96401281395117,37.56862019886846],[126.96400034380186,37.56863549368521],[126.96388391520003,37.56874584569666],[126.96380569551614,37.568820413544266],[126.96360456788378,37.56901272810804],[126.96352425272437,37.569088961920656],[126.96333512821063,37.569269386836126],[126.96314006835235,37.56945582811364],[126.96295040922503,37.56963770281797],[126.9629126468812,37.56968323541887],[126.96290991790731,37.56968517165064],[126.9626900300265,37.56989800299615],[126.96252660942767,37.5700538560906],[126.96228987063321,37.5702768802934],[126.96227278090448,37.570293317642786],[126.962204660661,37.57035709393116],[126.96213058185275,37.570429202329564],[126.96211375265923,37.57044515320895],[126.9620166056353,37.57053652596335],[126.96191940222946,37.570627042679],[126.96188337625344,37.57066199792795],[126.96187224272501,37.570674103466224],[126.9618621637546,37.57068273154461],[126.961558738166,37.57096776484716],[126.96154039222677,37.57098311146812],[126.9612969660257,37.5712116093839],[126.96116907741224,37.57133651472448],[126.96076494048586,37.57171581787085],[126.96074699045869,37.57173103836487],[126.96047790374354,37.57198950155529],[126.9604571999165,37.572010144992646],[126.96037454853656,37.57208260067137],[126.96029225985669,37.57217445468085],[126.96019574076561,37.572268547110575],[126.96009543839816,37.57236664752717],[126.96003626005725,37.572425019752565],[126.96003395096618,37.57242474864496],[126.95995342322401,37.57250371890959],[126.95988184227801,37.57257497081072],[126.95978039446597,37.57267543113762],[126.9597298226918,37.57272670646706],[126.9596438691414,37.57281093636265],[126.95955828943356,37.57289431038914],[126.9595487987583,37.57290253303133],[126.95945831317094,37.57299329333713],[126.95940600550531,37.573050802739715],[126.95936543901051,37.5730837914329],[126.95918786653776,37.573258555499734],[126.95900353350746,37.57343632615758],[126.95893708159923,37.573502506762004],[126.95879107335867,37.573646837236424],[126.95865123748482,37.573785025034205],[126.95855113435697,37.57388392606334],[126.95845360371683,37.57397744004017],[126.95833757734154,37.57408798484107],[126.95833757137484,37.574098319163106],[126.95810668035294,37.57428588310719],[126.95804870670564,37.57433077599008],[126.95775098146991,37.574574211850155],[126.95774853662687,37.57457368837118],[126.95739988019994,37.57485514412003],[126.95740101143625,37.57485646899393],[126.95735131495145,37.57489632810428],[126.95726835497909,37.57496328543396],[126.95724879593979,37.57497859488289],[126.9571726876659,37.57504022987939],[126.95709143675315,37.57510714267561],[126.9570507892768,37.57513946380038],[126.95696908599277,37.5752052771365],[126.95691464339014,37.57524928782008],[126.9568399857152,37.57530731018889],[126.95675593748611,37.57537526683735],[126.9566951524042,37.575424086284386],[126.95663511412111,37.575473338457435],[126.9565778521452,37.5755177353361],[126.95651207184781,37.57557110277064],[126.95647714336081,37.5755988668808],[126.9563731620078,37.57568129450832],[126.95636999003348,37.575685086450754],[126.95630872555444,37.57575832226128],[126.95629016828427,37.57578245259581],[126.95625089090446,37.575831739551674],[126.95617272139445,37.575929466643096],[126.9561190910485,37.57599510996375],[126.95603281121194,37.57610040213119],[126.9559883906071,37.57615533620349],[126.95589747614133,37.57626754606127],[126.95583915478025,37.576339548405784],[126.95578234015588,37.57640953309353],[126.95576314894716,37.57643311349482],[126.95567181348017,37.576547719635315],[126.95563369136849,37.57659473634083],[126.95557641159515,37.57659202912309],[126.95552683977573,37.57657298097831],[126.9555060374544,37.57656543161208],[126.95546315446997,37.57654894485003],[126.9554490743554,37.57654487590543],[126.95521151639177,37.57683519806496],[126.95520967161173,37.57683445853211],[126.95518899579096,37.576860200624346],[126.95495663615965,37.577143739864034],[126.95491746375565,37.577149175377905],[126.95490142271797,37.57716709868229],[126.95484112864592,37.57724114498321],[126.95483245181028,37.577249637857676],[126.954824147144,37.577260383345674],[126.95470611143944,37.57739931381113],[126.95467660830437,37.577492464139894],[126.95467151530228,37.57750852671282],[126.9541911028083,37.578046764754845],[126.95414741887592,37.57809642763882],[126.95397814437145,37.578286855200155],[126.9537932036682,37.57849102523558],[126.95355820110015,37.578748855425864],[126.95362990758112,37.57881841366776],[126.95398041384115,37.578955153899756],[126.95418499765499,37.579017764569585],[126.9542796953702,37.57905495017471],[126.95438487400169,37.57909571680515],[126.95448438924403,37.57912339876138],[126.95455592436134,37.579143293992686],[126.95469953815527,37.57918301246178],[126.95475409438424,37.5791993059018],[126.95488277885624,37.57923476557653],[126.95501642074751,37.57927220923396],[126.95510658775879,37.57929614788841],[126.9551244742078,37.57931519276331],[126.95515867510922,37.57935074110561],[126.9552306628634,37.57942646122649],[126.95533327984134,37.579492318477996],[126.95548347939045,37.57957544809443],[126.95567773578527,37.57968430878709],[126.95720178989737,37.57981923683621],[126.95722192900062,37.58003085005841],[126.95719479877637,37.5801351110274],[126.95722361834932,37.580351466684824],[126.95730283329472,37.58044409074488],[126.95779146695861,37.580587142146726],[126.95803118302453,37.580735596106415],[126.9581182303842,37.58085320684746],[126.95817317471186,37.58098457280858],[126.95816048922717,37.5811703605178],[126.95802021006021,37.58146051656079],[126.95794673232659,37.581524432450635],[126.95792377594036,37.581538731635334],[126.95779283116076,37.58181640316877],[126.95764189815633,37.58204506248412],[126.95754231997219,37.582250531339156],[126.95752747901948,37.58230609862793],[126.95754778238252,37.58235660645872],[126.95757656941807,37.58241961411976],[126.95765638245548,37.582616509241376],[126.95756637541291,37.58285148894197],[126.95758160949195,37.582916960251104],[126.95762568939334,37.58313867324329],[126.95763849755825,37.58319036756565],[126.9576756946525,37.583295697626085],[126.9579546708758,37.58410451676278],[126.9579763184257,37.584414355721144],[126.95788229339045,37.5846452886824],[126.95784600376003,37.58470977682582],[126.95774513512839,37.584871069954836],[126.95774559030875,37.584925129261265],[126.95780920769289,37.5849819689873],[126.95778081438667,37.58505673126632],[126.95775639301255,37.58511546647637],[126.95769957945772,37.58527187451749],[126.95761058563144,37.58553068558781],[126.95744913344944,37.5860165719492],[126.95741367196823,37.58638353907904],[126.95736486724273,37.58697084615591],[126.95736539022157,37.58700551626603],[126.95745285416106,37.58780991253185],[126.95745752730379,37.587853251663184],[126.95731906835302,37.58869647691106],[126.95732640731987,37.588750322524675],[126.9574022838633,37.58923906318824],[126.9574545297252,37.589519514264495],[126.95746451094811,37.58979717450488],[126.95746849634506,37.59004710919063],[126.95747296691597,37.59006939221377],[126.95748528249686,37.59013261891381],[126.95765277044069,37.59079825674375],[126.95769145775859,37.590956114625264],[126.95781061411799,37.59146442227143],[126.95778634555883,37.59189703004067],[126.957822439943,37.59255990671441],[126.95752762106073,37.59303107512422],[126.95752915259247,37.5935070206721],[126.95809618850534,37.593931368976726],[126.95849813341007,37.594150085920155],[126.9585557843656,37.59418069533182],[126.95863953374781,37.59433213617858],[126.95866132947862,37.59445285795344],[126.95887390801008,37.59455597149453],[126.9590459258643,37.5947815138051],[126.95906748723334,37.595017191970896],[126.95865482289133,37.595847155443096],[126.95871253028639,37.59637466642286],[126.9585620917422,37.596602957115024],[126.95852401559617,37.59667352632436],[126.95847524910236,37.59682428819073],[126.95842315152287,37.59697812117151],[126.95836986265918,37.59713558465418],[126.9583475865445,37.59723823459592],[126.95829539224098,37.59751917825397],[126.95825963209043,37.597695541717265],[126.95825049674706,37.59774931808324],[126.95812814015999,37.59793273145464],[126.95801005612473,37.59810907354706],[126.95782564013993,37.59824154911907],[126.95769251010331,37.598333057711834],[126.95729181647754,37.598491652541426],[126.95674074232129,37.59853519652489],[126.95674071812894,37.5985944632118],[126.95673491940772,37.59863383399134],[126.95672622626718,37.598684628142756],[126.95676034173958,37.598689803720035],[126.9567743283395,37.59874366080675],[126.9567033421251,37.5987958548783],[126.95668632071835,37.59868549595578],[126.95664932076662,37.59871290783385],[126.95659648238924,37.59875317971748],[126.95652187012412,37.59880919246961],[126.95616020803438,37.598999612042704],[126.95612395095955,37.59901521214695],[126.95604003066906,37.599051318287344],[126.95592100790302,37.599084906078225],[126.95575238895849,37.59913305244033],[126.95551353951684,37.599199073748586],[126.9554719556269,37.599203382253364],[126.95499517533973,37.59924010857654],[126.9548217093344,37.5991606093767],[126.95474588184942,37.599165273476004],[126.95458545521875,37.59911357443342],[126.95454645168121,37.5991022245462],[126.95451837918043,37.59906729125304],[126.95431209234246,37.59901405991533],[126.95425376542363,37.59902853339655],[126.95422653047373,37.59901240389352],[126.95421353808004,37.598982873459505],[126.95415143689175,37.59885986431187],[126.95405397949973,37.598795873353936],[126.95402553067008,37.59867656268681],[126.95391201155013,37.59860258224858],[126.95387080623865,37.59859959237606],[126.95372243904171,37.5985513297709],[126.95361068616998,37.59851383958925],[126.95347743655753,37.598518362425324],[126.95337125228062,37.59853804168747],[126.95333206724592,37.59854549484989],[126.95319357339203,37.59869204626338],[126.95317583774747,37.598713554486295],[126.95316741505566,37.59874513951719],[126.95312477920758,37.59888772069758],[126.95318261283684,37.59900579124747],[126.9532466292918,37.59905402906994],[126.95325167069588,37.59908553852228],[126.95332180218779,37.59915126689205],[126.9534186696361,37.599269488401355],[126.95343904721197,37.599295481065155],[126.9534527140316,37.59936761035209],[126.95353255051135,37.59946866109367],[126.95352770766448,37.599586183394436],[126.95346600958106,37.599700141694775],[126.95347382984252,37.59983054419501],[126.95350146616049,37.59989192141463],[126.95351119143751,37.60008892536727],[126.9534407807163,37.60020914193403],[126.9533911777946,37.6003379803424],[126.95337476650515,37.600377409685564],[126.95317757728402,37.60054056021718],[126.95307948072387,37.60062195987038],[126.95306063732876,37.600639611406066],[126.95302578548123,37.600738624153614],[126.95304384305054,37.600780266003625],[126.95301964978874,37.600822818509585],[126.95299195276003,37.60087243327767],[126.95289905175643,37.60097366555098],[126.95286781734637,37.60101220574874],[126.9527491607878,37.60117173890932],[126.95271473665711,37.601308394805976],[126.95269959073694,37.60136878143814],[126.95265739541306,37.6014401488663],[126.95266569541499,37.60149308505689],[126.95262776895441,37.60156485968212],[126.95269079612542,37.60167412095664],[126.95270130243397,37.60176473716511],[126.95270775489527,37.601803022601935],[126.95267155784886,37.60191415288985],[126.95265920502641,37.601997731968396],[126.95262889219691,37.60221919904765],[126.95262106696373,37.60227129964947],[126.95253573658373,37.6023945637805],[126.95252078898064,37.602445544199156],[126.95261469906714,37.60251904028401],[126.95271547901527,37.60259899918141],[126.95274431770152,37.60262325655192],[126.95278899818175,37.60270120101667],[126.95284435957228,37.602793610643694],[126.95288946018282,37.60287014069842],[126.95293727822762,37.602947473728214],[126.95304624557768,37.60302912054531],[126.95327394778258,37.603202058383374],[126.95334777894348,37.60336695036951],[126.95345933882187,37.60360990079888],[126.95351194786953,37.60372301356098],[126.95352663277468,37.60378062836779],[126.95359182596981,37.60403134428234],[126.95365364061936,37.60427100372327],[126.9536707627923,37.60430741937405],[126.95375361024615,37.60447247690762],[126.95376363101278,37.604492635943416],[126.95382635716722,37.60456544268095],[126.95384578891225,37.604585389276146],[126.95391480652775,37.6046663974481],[126.95398823810694,37.60475184019049],[126.95407696614929,37.60507446367663],[126.95311257577997,37.60550643555253],[126.95272042039642,37.605921690020914],[126.95272026246516,37.60611144585065],[126.95274229868734,37.60611459938821],[126.95273981494445,37.606310868352665],[126.95260642767228,37.606677269673725],[126.95228585793001,37.60689002046748],[126.95226119200795,37.60690720091634],[126.95177136005115,37.60740274288996],[126.95147745575451,37.608020872553745],[126.95062122934691,37.608363717484146],[126.9505751604313,37.608875230110925],[126.95032158229452,37.60912883688162],[126.95037948953684,37.61063319518908],[126.94990611066054,37.61152230297607],[126.9498683167288,37.61158775175713],[126.9498287651319,37.611656245072886],[126.94986821834335,37.611730016690096],[126.95047794330608,37.61286999638805],[126.95073164969288,37.613528281653586],[126.95079659031315,37.613849365214065],[126.95059186506788,37.61513736460235],[126.95072415539804,37.61553794367445],[126.95046954066011,37.61609915388464],[126.95015548717866,37.61765518243518],[126.94986337882811,37.61872668111391],[126.9498536470409,37.61876237369678],[126.9498288133286,37.619309960656956],[126.94986285803863,37.61947945896706],[126.94983805868844,37.61958440330067],[126.94991116839044,37.6199205459734],[126.94992850658777,37.62061403798204],[126.94988918442017,37.62090082977412],[126.94987006491002,37.620948897703286],[126.94981501490513,37.62109609373493],[126.94954548693507,37.621694676533004],[126.94922703158247,37.62235817059864],[126.94889796803085,37.62326274314904],[126.94900027133298,37.624335134657166],[126.94962876587402,37.62521365144545],[126.94981196645251,37.625497585416156],[126.95001802921854,37.62577992532629],[126.95045372805139,37.6264180079987],[126.9509375428722,37.62649043887419],[126.95160533742367,37.626545187431965],[126.95202435822522,37.626873383420936],[126.95275419640623,37.62705630675469],[126.95350569896408,37.6273778860588],[126.95405963358543,37.62736014462997],[126.95521927575457,37.62813979002416],[126.9556954584409,37.628232866837905],[126.95641594666792,37.628234522932814],[126.95674818723423,37.62862264702498],[126.95744567270155,37.629159298359305],[126.95814239658432,37.62938626082502],[126.95881364933368,37.629589270948024],[126.96011538027764,37.629775669878086],[126.96048940842029,37.62982606613206],[126.96143934577253,37.62995934104257],[126.9637668991734,37.62979323842363],[126.96433113891753,37.63035994399662],[126.9652281763369,37.630767961180496],[126.96604697748512,37.63081558362984],[126.96651169873803,37.63072556149463],[126.9668013330009,37.63068818437997],[126.96765332376975,37.63074341871359],[126.96823532782227,37.6307300336035],[126.9686818771614,37.63084057364951],[126.96938847242838,37.63101602653123],[126.97058245803552,37.63148512475585],[126.97132724753175,37.631618644480604],[126.97302950507132,37.6323748084803],[126.97367181185818,37.63203125658401],[126.97445311295118,37.631980091634034],[126.97462854160347,37.63191279261718],[126.97538814577999,37.63173315501907],[126.97508477392456,37.63118349956002],[126.97468086826186,37.6298054335985],[126.97496551383378,37.629025844982614],[126.97619200658374,37.6290868315881],[126.97841861983044,37.62929009886263],[126.97861494231526,37.629213689079116],[126.97897182896816,37.62907641259687],[126.9791389845527,37.62902170094301],[126.97952792608106,37.628892997159234],[126.97993254964092,37.62855138462436],[126.98019012832098,37.627933260753856],[126.97985432854081,37.627455383329384],[126.97960294673453,37.62637099940483],[126.98090237871861,37.625391796937556],[126.9818477554761,37.62431463006395],[126.98235930635609,37.62341479769832],[126.98310979568396,37.62210464017368],[126.98365101769498,37.62115092787971],[126.98343830150503,37.620741517129474],[126.9831695674255,37.62022580863017],[126.98316928292566,37.62004684687516],[126.98316637468281,37.619758965195985],[126.9831636961309,37.61927405714745],[126.98322819934256,37.61910357463948],[126.98327664126643,37.61897743586714],[126.98333383402039,37.61882391762463],[126.98358945054912,37.61814822134785],[126.9837313390838,37.61777429082141],[126.98392260357546,37.617524964091814],[126.984024518405,37.617389850162276],[126.98440848078269,37.61689063699855],[126.98448617627102,37.61641442582351],[126.98454753149893,37.616017057049056],[126.98516214468714,37.61551582903445],[126.98518141699506,37.61548747783261],[126.9852494641407,37.61539030742383],[126.98536080410297,37.61522300153744],[126.98542280975305,37.615144912975325],[126.9854721005127,37.61509792451707],[126.9855962400398,37.614975128604776],[126.98576928408684,37.614807046777095],[126.98596691022301,37.61461496579594],[126.98612746921616,37.61445627901981],[126.98632419923186,37.6142617646626],[126.9864364411533,37.614150733130494],[126.98647933102575,37.614105392220765],[126.98658779114268,37.61398644944462],[126.98648691287276,37.61368833798366],[126.98644496361949,37.613563808010596],[126.98641643099705,37.6135192598476],[126.98614562016803,37.61321475626317],[126.98620106636709,37.6130224309839],[126.98619933067471,37.6129809675959],[126.98618798847983,37.612949729098624],[126.98617882276012,37.61290931889253],[126.98610205089506,37.61265733141853],[126.98605460159445,37.612517763185956],[126.98604975789469,37.612499517676845],[126.98603975261955,37.612466684600825],[126.98597331892294,37.61228470464122],[126.98589573615138,37.61207147712431],[126.98565841806857,37.611363553259515],[126.98570096803472,37.61120657193054],[126.9857494884399,37.611040149092055],[126.98579118577273,37.610896628274425],[126.9858123665855,37.610726192385776],[126.98583613801311,37.610515383840465],[126.98585089630267,37.61034838883051],[126.9858680062697,37.60993009227558],[126.98586523735925,37.609469951453235],[126.98629636997896,37.60915422269297],[126.98633956996312,37.60912961343015],[126.98682175253865,37.60887466953358],[126.98668854514875,37.60829833970019],[126.9864029943567,37.6079430101808],[126.98632723716678,37.60784629803823],[126.98623832295347,37.607736781185885],[126.98609728216945,37.60739425445364],[126.98636357283053,37.60687525108231],[126.98630264986917,37.606513697049074],[126.98675599367765,37.606087049363445],[126.98665817080915,37.60505378132831],[126.98674127235952,37.604707742357974],[126.98678733327176,37.60451846967877],[126.98666152697513,37.60400854274008],[126.98662871766152,37.60401837733688],[126.98589779576392,37.60363176124212],[126.98573990101787,37.6034553187907],[126.98531334715256,37.6034252762823],[126.98472468638738,37.60338183869066],[126.98432503551679,37.60312678497341],[126.98396292540916,37.603219397753726],[126.98358412030132,37.602847802479275],[126.98286730571306,37.60212795913848],[126.98259603676472,37.60224271020538],[126.98205621837063,37.6020650296557],[126.98165435443508,37.601931500082415],[126.98146917366462,37.60186995865537],[126.98130100312022,37.601805167303326],[126.9812129625009,37.601784880069495],[126.98094919965416,37.60169615062888],[126.98077045476597,37.60162541919703],[126.98068437214991,37.60161031256544],[126.98049979581735,37.60145881556526],[126.98016290319272,37.60144974525609],[126.98004791327159,37.6013845652924],[126.97983240751992,37.601250108213875],[126.97953542900602,37.60121829361567],[126.97944129625708,37.601162721422334],[126.97923773687603,37.60103608602144],[126.97888055727871,37.60101436742586],[126.97885101293399,37.60101324453618],[126.9787012087789,37.60100371029728],[126.9785217019672,37.60099248524589],[126.97841694389226,37.600914295484074],[126.97830702399852,37.600830446438536],[126.97821410321714,37.60074214078016],[126.97794135241848,37.60030682158838],[126.97768478741577,37.60022440216254],[126.97741298516176,37.59939156801886],[126.97741267744735,37.59911687611525],[126.97719805036967,37.59864847381732],[126.9771452670288,37.59844995822693],[126.97699081411483,37.59823360907561],[126.97677265029883,37.59796316032455],[126.97672045751844,37.597900774270585],[126.97688827977825,37.59774675020976],[126.97729084447506,37.59768385476905],[126.97775901783905,37.5977270169633],[126.97780465181012,37.597727999203066],[126.97788569819068,37.59771831186423],[126.97796666772983,37.5977008669846],[126.97818933816477,37.59751186680145],[126.97837900240894,37.59745887223415],[126.97860448081263,37.59726502451745],[126.97864420573951,37.59707408672734],[126.97857113439102,37.59700202086771],[126.97859734257547,37.596799421725066],[126.9786608609378,37.59670957892295],[126.97912325666302,37.5964038375932],[126.97936410461571,37.596371303468],[126.97957555884771,37.59625442228448],[126.97980086615273,37.59623648932666],[126.98028834964872,37.595960849895434],[126.9806259774533,37.59592496989051],[126.98065947225034,37.59592401176178],[126.98074142140021,37.595876382182304],[126.98093620242474,37.595847855116446],[126.98105308935746,37.59578013045399],[126.9813291901902,37.5954733208613],[126.98155810792561,37.595324192873036],[126.98191443412655,37.595304196688446],[126.98250638279006,37.595208320696834],[126.98275136823158,37.59491122434936],[126.98276475506349,37.59490010833272],[126.98294485579363,37.59478890130693],[126.98328904097747,37.59476738540594],[126.98347313724919,37.59470489440335],[126.9838876852597,37.594438698202666],[126.98436989185801,37.59439312538607],[126.98443740184403,37.5943868463053],[126.98463844250995,37.59439410112168],[126.98472847574219,37.59443133362185],[126.98488353328045,37.59448937896103],[126.98490092584919,37.5944884533973],[126.98500861277319,37.594471520996294],[126.98517647975113,37.5945174675234],[126.98544142760316,37.59447740110221],[126.98579315288018,37.594289566244726],[126.9859490822884,37.594078477293124],[126.98591381772499,37.59404560472943],[126.98613654616803,37.5938092967728],[126.98612968170022,37.59371243105259],[126.98615455577972,37.593615064914765],[126.98622377225905,37.59345468066749],[126.98627684684881,37.59332546835211],[126.98652504176779,37.593010407868825],[126.98663399596124,37.59287174213118],[126.98671393432518,37.59276431879577],[126.98719247892961,37.59273700594015],[126.98733752610829,37.592672116533016],[126.98777376805063,37.59227316713975],[126.988213674178,37.592063513386144],[126.98853083172078,37.59196198071649],[126.98891353925657,37.59163872189045],[126.98906081936683,37.59147001012711],[126.98910118093188,37.591425001185016],[126.98919741563172,37.591268420128024],[126.98936349708936,37.59126468925156],[126.9896785258574,37.59141852837241],[126.98987005068432,37.59148114784554],[126.99015571028508,37.591485941900466],[126.99032000166962,37.59149237261333],[126.99033615864046,37.591495851946014],[126.99080919961017,37.59156628974744],[126.99098028818675,37.591549087329724],[126.99115500888688,37.59146743754847],[126.99143238857958,37.5914109157781],[126.99165641938433,37.591495762418575],[126.99187043971504,37.59185693980748],[126.99199086881919,37.59194348015358],[126.99203988326614,37.59195777371605],[126.9921689815558,37.59198917431695],[126.99238859813624,37.59198875903681],[126.99286005530975,37.591895335429804],[126.99328545235416,37.591783941100516],[126.99358872839662,37.59171147765119],[126.99366159043609,37.591493624430534],[126.9938585899199,37.59142373898768],[126.99431980640124,37.59144364374202],[126.99447442207817,37.5915179122294],[126.99475544962857,37.59166441976553],[126.99495125695015,37.591883009698414],[126.99514413701323,37.59205236934183],[126.995248554977,37.59219625316476],[126.99535430361092,37.5922734911331],[126.99564260789545,37.59223904317914],[126.99583626397134,37.592212482626714],[126.9963664185367,37.59207663848516],[126.99642734749558,37.592061387459985],[126.99648366510189,37.59208999613708],[126.9967737128704,37.59221807410412],[126.99687489374655,37.59221396963903],[126.99742803499788,37.59222462172583],[126.99767118900931,37.59228935663522],[126.99777834623964,37.59232803934748],[126.99787327529693,37.59235905420653],[126.9980624212399,37.59240095567945],[126.99846457134247,37.59247652333632],[126.9986912662696,37.59247165465925],[126.99876938323398,37.59245425849359],[126.99886953469968,37.59242877193166],[126.99892678376088,37.59240635670742],[126.99900409712184,37.592375860053174],[126.99921395667646,37.592305524474],[126.99945522563597,37.59222358439297],[126.99976985229493,37.59223460851723],[126.99990057477554,37.59220590501376],[127.00011843655632,37.592224675309524],[127.00034406539393,37.59227538518388],[127.00044626482081,37.59229806393897],[127.00048280355509,37.5922987490138],[127.00077173923191,37.59230628342878],[127.00095307427256,37.59230095961945],[127.00112589558113,37.59209523851226],[127.00137338949268,37.59191146524644],[127.00144485885319,37.59182798007707],[127.00173200243785,37.59135237712777],[127.001782885375,37.591018517129946],[127.00165592450551,37.590881928052994],[127.00164828173503,37.590875531069564],[127.00162115271203,37.590831572048124],[127.00160973949794,37.59080319103633],[127.00155271887351,37.59071893096725],[127.00154046783395,37.590697956043584],[127.00149051266553,37.59057094421123],[127.00148299449782,37.59054664464812],[127.00146297621563,37.59055128471215],[127.0014682073156,37.59043596766412],[127.00147012088225,37.59034848203488],[127.00147217031126,37.590266294195445],[127.0014682301566,37.5901492021975],[127.0016655923301,37.59002278492564],[127.0018206645087,37.58990895419606],[127.00186779968466,37.58986140008124],[127.00200560409588,37.58968430199099],[127.0021470986249,37.58946778562113],[127.00221643419869,37.58917216303498],[127.00234433001835,37.589043609662255],[127.00262875589993,37.58888706117407],[127.00282244455884,37.588772174584555],[127.00294053520409,37.588729655734376],[127.00319766336871,37.588692802067314],[127.00328456112803,37.58866310433014],[127.00335308205207,37.5886037103457],[127.00339313934256,37.58856897673952],[127.00341522810308,37.58853107194177],[127.0034427839733,37.588434404798676],[127.00347199484521,37.58841539353211],[127.00346267441908,37.588329682966446],[127.00351710672211,37.58814519632962],[127.00356550773961,37.58809574943217],[127.00357457656719,37.58808693763922],[127.00368963131997,37.58804308462936],[127.00371651016721,37.58804308413213],[127.00391934661971,37.58803245756673],[127.00398778626236,37.58794448395743],[127.0039550499052,37.58782210381121],[127.00389136048138,37.58774745847913],[127.0040020135321,37.587803353329605],[127.00408063208346,37.587733579351024],[127.0041390071282,37.58768061815555],[127.00417267782477,37.587644181558716],[127.00421414830635,37.58757677790977],[127.00424428598866,37.587528394307355],[127.00428889176044,37.587439411960126],[127.00434089027664,37.587338185027534],[127.00437948440614,37.58726483488246],[127.00443423703184,37.587243029697795],[127.00460372554242,37.58717858691864],[127.00462938089116,37.58716881055437],[127.0046826729169,37.5871490505294],[127.00476474577452,37.5871347947131],[127.00478700473622,37.587130973921106],[127.00480941088531,37.58712722519963],[127.00494865963456,37.58710554352859],[127.0049806328295,37.587100560146325],[127.00511953117642,37.587092996724664],[127.00514477926299,37.58709204090743],[127.00521068488777,37.58709352549083],[127.0052375521029,37.58709415533738],[127.00540742826016,37.5871013847769],[127.0054642876506,37.58710395970857],[127.00549566071396,37.587098435615665],[127.00559325592488,37.58708525988175],[127.00577321810208,37.58705865644566],[127.00582466500364,37.58705186115079],[127.00589326341742,37.587022045022835],[127.00598503726196,37.58698077645613],[127.00603160126653,37.58692368825103],[127.00604360146683,37.586905064423576],[127.00605107325715,37.586892981922745],[127.00608885044738,37.58682211796431],[127.00613275470162,37.58678275220388],[127.00618131187973,37.58673755686751],[127.00620140726915,37.586719626462205],[127.00627078441653,37.58665791519791],[127.00632040570528,37.58661289094776],[127.00637199535396,37.5865432156335],[127.00639814659263,37.586505454255104],[127.00643162240426,37.58645712400655],[127.006482034651,37.5863918094611],[127.0065230500971,37.58633364010693],[127.00652675196162,37.5863276303768],[127.00665931271948,37.58621759633052],[127.00666960272447,37.58619434144612],[127.00672104178071,37.58608451806612],[127.00671404235953,37.586048551032086],[127.00666749434798,37.585829181110306],[127.00665057299013,37.58573409182989],[127.00663306284187,37.58563755198417],[127.0066279659545,37.58560723403956],[127.00662522526042,37.58559527807923],[127.00669056977007,37.58552366489886],[127.0068866041371,37.58548865285742],[127.00701734953797,37.58535338186825],[127.00698970629139,37.58526034737487],[127.00699334899303,37.58522069482734],[127.0069959168064,37.585190340501384],[127.0069983364115,37.58514602090422],[127.00699237986082,37.58512803750654],[127.00696296130417,37.58506364542052],[127.00690447407482,37.58491763436172],[127.00691463942647,37.58489632558563],[127.00694497463601,37.58480061248279],[127.00699035616314,37.58470345709706],[127.0068890385314,37.584703461749264],[127.00701018422937,37.58429303913915],[127.00706935861301,37.584091170499875],[127.00719458449039,37.58346697954859],[127.00723747610054,37.58339518691962],[127.0072705639958,37.583333188469496],[127.00726541462188,37.583210501462474],[127.0072599315441,37.583164938868734],[127.00725991657056,37.5831173758197],[127.00715516594848,37.582904234609785],[127.00713293948232,37.58287012433825],[127.00710406668914,37.58282674323077],[127.00708682257556,37.582804696917194],[127.00701648687813,37.58270589808472],[127.00678485164916,37.5823839322624],[127.00675799473865,37.582344821650835],[127.00675277502087,37.58233636162288],[127.00685934829627,37.58225852967011],[127.00688974471905,37.58224085995345],[127.00690922751063,37.58222474042389],[127.00692833492727,37.58218424022378],[127.00696459213661,37.582117232218444],[127.00699110329182,37.582072406932184],[127.00699889073708,37.58205071082461],[127.00702069269627,37.58201258908669],[127.00732418171945,37.58186570479888],[127.00741784300268,37.581730516189054],[127.00744978836478,37.58169115050156],[127.0074790393662,37.58165329859807],[127.00750317530165,37.581642278315755],[127.00757501683876,37.58160716321966],[127.00780019832719,37.58150551119791],[127.00780500898384,37.58149542890596],[127.0079053372268,37.58136172617296],[127.00796109853376,37.581283373378405],[127.00797940296334,37.58126167662889],[127.00800857477253,37.58122949179939],[127.00804733664846,37.581209749053016],[127.00823989982027,37.58110462017783],[127.00832686436326,37.58105688995092],[127.00844150080025,37.58079925525692],[127.00848402980826,37.58075322136328],[127.00858954327386,37.580644799403224],[127.00860182253513,37.58060167745975],[127.00863269470256,37.58047915947599],[127.00863808340011,37.580477969849134],[127.0086379797935,37.58045993210787],[127.0087649660718,37.58044243623621],[127.00885465002679,37.580430105203675],[127.00891266949795,37.58042226300262],[127.00913435471787,37.580392381211496],[127.00927851514933,37.580378775939366],[127.00932244001018,37.58037224990255],[127.00950324543845,37.58034882117621],[127.00950653981035,37.58034842451933],[127.00960408039163,37.58033684020418],[127.01003144191958,37.580279002874306],[127.0101734516916,37.58027155040138],[127.010189085898,37.58027073836646],[127.01025602662585,37.58026780522539],[127.0105108611691,37.5802582626641],[127.01054279755868,37.580257061915354],[127.01055619014508,37.580255790500026],[127.01056366197058,37.58025551963191],[127.01058890768499,37.58025461670861],[127.01063227495519,37.58031903389754],[127.010643598018,37.580335881468756],[127.01070881894687,37.58043282254643],[127.0109743468519,37.5808273435063],[127.01100593788837,37.580868425948445],[127.01112607720373,37.58104392836647],[127.01117917942136,37.581091766405436],[127.0111897543182,37.58109924372584],[127.01125968002947,37.58114870212411],[127.01142634437306,37.581279060968576],[127.01153469927644,37.58136473561843],[127.01161508812558,37.581428248301094],[127.01169859218244,37.58150458169381],[127.0117886052286,37.58157458052727],[127.01208452024306,37.581585672584424],[127.0122245811304,37.581550872888386],[127.0124187098821,37.58150235503599],[127.01253278885919,37.581471026166795],[127.01262599213376,37.581444023887045],[127.01274335394912,37.58141185658796],[127.01285983358405,37.581386095268996],[127.01314825906334,37.58143362126292],[127.01324572568423,37.581450324916126],[127.01337347950154,37.58155732229091],[127.01344707935621,37.581633114847456],[127.01362771734902,37.58168346158644],[127.01391701037969,37.58176417794185],[127.01411904708645,37.58182016185209],[127.01422373610838,37.58209590645507],[127.01459879110367,37.58224687077064],[127.0147333661062,37.58230370800694],[127.01481176032158,37.582334548969875],[127.01494070995577,37.58220780167378],[127.01499595916157,37.58215218651602],[127.01506790659533,37.582155890343394],[127.01522109823988,37.58205054738326],[127.01531329819876,37.581986710787234],[127.01535208206275,37.58184935090867],[127.0154050045733,37.58182630647905],[127.01540561528913,37.58182290968934],[127.01561277468917,37.581781151459545],[127.01602987625503,37.58186460432589],[127.01638580797095,37.58193775615478],[127.01648450855912,37.58183419334376],[127.01670153429465,37.581711045870186],[127.01673363753419,37.58169269765819],[127.01679725573736,37.58154751353448],[127.01684861884166,37.581431477869735],[127.01682485675772,37.581215451479245],[127.01686375520354,37.5811554137142],[127.0168960314001,37.58109863836882],[127.01695164665294,37.581017461256465],[127.01688515971688,37.58086172543554],[127.01701130698203,37.5807895669732],[127.01713289242652,37.580721301239635],[127.01714730249006,37.5807133796629],[127.01722403942982,37.58061867581362],[127.01727621587102,37.580554095168125],[127.0172825159174,37.5804730055532],[127.01728756453092,37.58041663917059],[127.0172927296561,37.58037595894487],[127.01729735010288,37.580329287231855],[127.01729828723866,37.5803174030959],[127.0173031215069,37.580264712764354],[127.01732158643021,37.58026648523735],[127.01732529611236,37.58024942906788],[127.01733943568892,37.58019427779503],[127.01736421788348,37.58014345883677],[127.0174003972437,37.58007842077415],[127.01744269758866,37.57999651540782],[127.01747380227773,37.579918602908855],[127.01752041785232,37.57984662580017],[127.01753941232859,37.57978420288051],[127.01754569572103,37.57973268362002],[127.01754721246131,37.57973145807248],[127.017559900071,37.57971682432849],[127.01765301885004,37.57968404276005],[127.01772812310999,37.579637992061485],[127.01776911070289,37.57961314622857],[127.01783177565737,37.579578548713805],[127.01786807818232,37.57956215474714],[127.01796532684105,37.579520659819764],[127.01797392995672,37.57951721685241],[127.0181084262636,37.57933198222554],[127.01819288468619,37.57920131826485],[127.01829143246803,37.57904941598587],[127.01830027027319,37.57903270142846],[127.01829438849985,37.579004744650035],[127.01824765056455,37.578878324840005],[127.01823537998929,37.57883287180262],[127.01818829165605,37.578657186064525],[127.01817620248389,37.57861262497045],[127.01808833855705,37.57854529759102],[127.01800684902166,37.57848097855092],[127.01784247838451,37.5783544488011],[127.01777168923289,37.578298885707405],[127.01776499635768,37.57828811082747],[127.01771341937707,37.57818414404563],[127.01769294216334,37.5781406021638],[127.01774715428897,37.57807647149748],[127.01784256270862,37.577962834903715],[127.0177706572034,37.5779778552637],[127.01776741575571,37.57796063785275],[127.0178521081685,37.577920856609815],[127.01787780543185,37.57791812306186],[127.01793093734412,37.577833792334665],[127.01796996283379,37.57779722485901],[127.0179816999731,37.57778655553923],[127.01800323857461,37.577765937955824],[127.01800690577011,37.57776282903928],[127.01800748291906,37.57776190995216],[127.01802439242435,37.577746050221535],[127.0180275047964,37.577742436829304],[127.01807682214971,37.57766162041584],[127.01808751626385,37.577644211850206],[127.01810443434043,37.57761615274507],[127.01812103562375,37.577588976649054],[127.01817155138893,37.577603691659064],[127.01836340301261,37.57766055274912],[127.01843889386997,37.57768294949591],[127.01849739313518,37.577658127920486],[127.01862280176898,37.57760418575704],[127.01871544046364,37.57756478115537],[127.01873794360888,37.57755528147418],[127.01875652528746,37.577526095799016],[127.0187686937032,37.577520841268395],[127.01891548543684,37.577657075966385],[127.01895712676371,37.57767485530257],[127.01901968009402,37.57770467771951],[127.01905080276353,37.57771452989745],[127.01913113920857,37.5777373669652],[127.01918739701631,37.57776135183749],[127.0191890061657,37.577816122583855],[127.01950018708287,37.57790819248658],[127.01937102567219,37.57808024650084],[127.01951735022757,37.57814773522017],[127.01953154615772,37.57814690414728],[127.01994949935522,37.57830534122251],[127.02011647312735,37.57836991578405],[127.02049990985509,37.57852034656523],[127.0207094791746,37.57860811383611],[127.0207296665067,37.5786176069523],[127.02073693487196,37.5786193356637],[127.02077546805602,37.57865301727599],[127.02089611398884,37.57869921815081],[127.02097572735956,37.578721414377505],[127.02106189928136,37.578758070300545],[127.0212582174368,37.57881866502967],[127.02148146145112,37.578854477749566],[127.02180384565895,37.57886263078435],[127.02182442695268,37.578863014670425],[127.0219806898855,37.57874664328584],[127.0223298810343,37.57863193169528],[127.0225132243417,37.578443638067405],[127.02275734748488,37.5783348903568],[127.02264836184916,37.578210465627954],[127.02252223651521,37.57808401662621],[127.02286705086242,37.577839463009106],[127.02288345113325,37.577827828302944],[127.02295258600293,37.57782707696232],[127.02297289514918,37.57782685703652],[127.02299613317392,37.57785503567781],[127.02304926742944,37.57791700487975],[127.02307057971048,37.5779407059529],[127.02313623125265,37.57802979253031],[127.02314141434367,37.57790621223691],[127.02315639126738,37.57790522741731],[127.02314209893404,37.57788557050457],[127.02315811745036,37.57749371038854],[127.02316025319801,37.577441317612404],[127.02316587433704,37.57726697562521],[127.0231721338557,37.57706892855016],[127.02317212751885,37.577047043579505],[127.02317857983459,37.576850320912115],[127.0231798645993,37.57683039985525],[127.02318027064291,37.57678616132202],[127.0232113672053,37.57674446694627],[127.02318257478132,37.57672900228725],[127.02318365588162,37.57670945067198],[127.02318218469428,37.57671108172832],[127.02318302410792,37.57667787119506],[127.02318763492757,37.576494240193654],[127.02318792340029,37.57647402199265],[127.0231911664076,37.576414412097726],[127.02319152986587,37.57637950779448],[127.02319494609023,37.57629263399955],[127.02319837730693,37.576257503885515],[127.02320177188382,37.57605697057661],[127.02320573947705,37.57599774796836],[127.02320721687593,37.575939516902714],[127.02320721387368,37.57592916456178],[127.02326383196073,37.575946552207384],[127.023311531679,37.57589324101663],[127.02324080176263,37.57585270963282],[127.02320896839083,37.575889664965935],[127.02320882171536,37.57585231907824],[127.02321058211255,37.57583310070021],[127.02321311262602,37.57577601369295],[127.02321855359588,37.57564482896996],[127.02323497957761,37.57541170453789],[127.0232615159182,37.57467753923459],[127.02327493243037,37.57429572537614],[127.02328689280597,37.57388973826819],[127.02329719242726,37.57361208808841],[127.02330652035226,37.57337980279302],[127.02332085638955,37.57300853022917],[127.02333580460595,37.57260204693212],[127.02333771459072,37.57255272651846],[127.02334731575353,37.572249100926385],[127.0233554075722,37.57208775056107],[127.02336207552716,37.57189605518865],[127.02310081419728,37.57196785789625],[127.0229480595342,37.57198622983042],[127.0229105584926,37.57199068751033],[127.02244316328652,37.572020819211524],[127.02233728970651,37.572020991096046],[127.02220625226661,37.572020969080334],[127.02202044431394,37.57200066620028],[127.02195207022086,37.57199035273483],[127.0215276529506,37.57192549124377],[127.02128937812942,37.57186112878462],[127.02075422336732,37.57171596895823],[127.02075070244359,37.57171404141808],[127.02074791754865,37.57171307781484],[127.02059730366916,37.57164824915257],[127.02054127722036,37.57162748141567],[127.02035377039516,37.57155290068291],[127.02024198865786,37.57150808531217],[127.0198891310613,37.571366775762144],[127.01971218759867,37.57129562512638],[127.0196447838302,37.57126828150451],[127.01949765970679,37.57120952355633],[127.01928658517421,37.57112503384373],[127.01910939369158,37.57105331471647],[127.01902375156405,37.57101348576348],[127.01893474656569,37.57111502223496],[127.01901743595776,37.57101660411764],[127.01875012215015,37.57086275471021],[127.01828651357143,37.570592227773155],[127.0180023116768,37.57042750413417],[127.01776708518626,37.570290685683126],[127.0177585946935,37.570286650425274],[127.01755269487828,37.57018885830495],[127.0174078463762,37.57011429410326],[127.01726227391333,37.570040657837104],[127.01711069060565,37.56996458050702],[127.01684259172616,37.569919313931656],[127.01660026835312,37.569878260081296],[127.01638370930942,37.56984255436108],[127.0161040768134,37.56979723350002],[127.01608108669072,37.5697952181247],[127.01578775095888,37.56977194538059],[127.01556641920232,37.56975424047819],[127.01538348348917,37.56973932372102],[127.01513735305744,37.56973229763198],[127.0149371113478,37.56972423869707],[127.01474283584858,37.56972094498108],[127.01432429965854,37.569713494897634],[127.01390751809883,37.56970628641317],[127.01348533728152,37.56969917611347],[127.01307637771811,37.56969281984053],[127.01290219670132,37.56970521633868],[127.01250058861088,37.56973404995512],[127.01210726653437,37.569766530464065],[127.01115734225205,37.56977097261751],[127.01003479690034,37.569775951288364],[127.00983467981898,37.569765036568434],[127.00946666175884,37.5697516552143],[127.00916387801219,37.569742665328484],[127.00875849449635,37.5697258424062],[127.00855515198774,37.56971792600531],[127.00817087953276,37.56970233415888],[127.00805976786806,37.56969735790307],[127.00779131580957,37.56968319091878],[127.00759838705193,37.569671443117],[127.00726502919318,37.569649718970645],[127.00715140492008,37.56964684128434],[127.00709377773487,37.56964465461857],[127.00690839956873,37.569637761658115],[127.00682298301395,37.56963160276817],[127.00669234545114,37.569624490759296],[127.00644755147046,37.5696109413621],[127.00596884280375,37.5696023739598],[127.00549878292529,37.56960639112847],[127.0048168468349,37.56961280916265],[127.0047290990006,37.56961394682617],[127.00434479452684,37.56961444318404],[127.003619448558,37.56962603601454],[127.00361770532895,37.56962449535598],[127.00351808343012,37.569625848567085],[127.00331520608707,37.56962810429847],[127.00310887632956,37.569630900320654],[127.00298628731376,37.56962928012954],[127.00273822284672,37.569625588901324],[127.00261255496484,37.569623337662314],[127.00247157196601,37.56962162700693],[127.0024528044426,37.569623339034216],[127.00237438368467,37.56962000597277],[127.00225748832858,37.569615772118205],[127.00214405665152,37.56960360042476],[127.00200998976536,37.56958981594139],[127.00193324430248,37.56958134694799],[127.00180850466829,37.5695687334871],[127.00172037195439,37.569559994086276],[127.00162523255389,37.5695422447455],[127.0014456054133,37.56950925959757],[127.00130752050148,37.569476913959335],[127.00112247168832,37.5694431264302],[127.00078786067891,37.5693804971509],[127.00063717783554,37.56934995262549],[127.00050954122997,37.569324264432744],[127.0003704382632,37.5692958820365],[127.00019836230261,37.56926065160241],[126.99997952656908,37.56921532024021],[126.99979643730367,37.56917900789003],[126.99954138036017,37.56912944053695],[126.99944428382366,37.56911024782364],[126.99919873553449,37.56906158088457],[126.9989488069414,37.569014544127754],[126.99872641828397,37.5689730846127],[126.99854380550443,37.568939923788385],[126.99823010524217,37.568885576871075],[126.99801976075338,37.56885088278017],[126.99795804856804,37.56884078986759],[126.9977476130506,37.56882051109967],[126.99753287675016,37.56879229410565],[126.9973422391805,37.568766429155026],[126.9971450589714,37.568744708199944],[126.99690436798471,37.568717939689115],[126.99683658881843,37.56870981911703],[126.99668683612883,37.56869458638282],[126.99662587112222,37.568687556164136],[126.99635266085,37.568653144796244],[126.9961629736943,37.568643549829495],[126.99595492726212,37.56862751162857],[126.99569673696304,37.56860820902164],[126.9954221681816,37.56858507580556],[126.99522279270387,37.568567802407955],[126.99512825527859,37.56855880546645],[126.99479832527574,37.568527405727984],[126.99457278024474,37.56850814756597],[126.99450477491621,37.56850238623082],[126.99422719536297,37.56848559301363],[126.99378734457412,37.56846028330038],[126.99372855303258,37.56845600875166],[126.99364448589318,37.56844990348455],[126.99316624241449,37.568409803673504],[126.99283990170453,37.56838163326326],[126.99249299454797,37.568351090781384],[126.99229725381224,37.56833397489856],[126.99180112781696,37.5682913003427],[126.99148897132399,37.56826126231883],[126.9911652246262,37.56822846542965],[126.99104005909656,37.568214705306374],[126.99060466117486,37.56817732890726],[126.9905325477104,37.568170781044245],[126.99046653516707,37.56816506261763],[126.99014701089177,37.56813548886918],[126.98990981974904,37.56812316729566],[126.98960037877097,37.56810909906704],[126.98946871474267,37.56810645481691],[126.98923061631064,37.568106069881004],[126.98892710501464,37.56810242493917],[126.98865386962055,37.568115486842686],[126.98821720714305,37.5681337915866],[126.98799546146044,37.56815199338907],[126.9876566635175,37.56817363187516],[126.9871485400999,37.56820458313979],[126.98663890011288,37.56823241460692],[126.98627897433612,37.56828098602342],[126.98563301745425,37.56841099456977],[126.9852489753158,37.568482228460994],[126.98523513137874,37.56848469526016],[126.98476229754111,37.568569015656415],[126.98437739411438,37.5686375706533],[126.98435624896088,37.56864112648482],[126.98407645455734,37.568713047407925],[126.98380897678025,37.56877732913546],[126.9834406516985,37.568855983638656],[126.9830046908271,37.568943915592726],[126.98284988113296,37.568972578677766],[126.98268416955014,37.56900636644348],[126.98232068623454,37.569043203362845],[126.98204092946222,37.56904425674712],[126.98178562884411,37.569020770641956],[126.98158211288177,37.56900204995773],[126.98137840268681,37.56899041065627],[126.98123138925233,37.56898477233027],[126.98097910493199,37.568984629601786],[126.98058290667986,37.56898615476034],[126.98056214685079,37.568987043055536],[126.98041412169087,37.56899691854795],[126.97978304781999,37.56903812337049],[126.97972994786747,37.56904196981213],[126.97946068741366,37.569070021633095],[126.97923297275065,37.56908420547224],[126.97867072121156,37.56911788505853],[126.97846622970445,37.56914433435866],[126.97814922301976,37.56917398662457],[126.97800994760516,37.56918195974903],[126.97791793835505,37.56920037560908],[126.97773587349992,37.56925124490187],[126.97762663757233,37.569300398776626],[126.97757736025201,37.56931364232908],[126.97757455279077,37.56927910688662],[126.97757166165206,37.56925845565337],[126.97752676960452,37.56925713109683],[126.9773143528525,37.5692514565652],[126.97731309641554,37.569251429277955],[126.97720231470703,37.569249622557244],[126.97700238250405,37.56924613943599],[126.97692595488424,37.56924461889092],[126.97692437018699,37.56924459153119],[126.97672933900543,37.56924193787744],[126.97644591680991,37.56923446289708],[126.97644407396359,37.569295423359364],[126.97643892395898,37.56936206835325],[126.97641841556354,37.56942279059044],[126.97640189024095,37.56941999401309],[126.97637492858027,37.56948422872248],[126.97620016745412,37.56945499936218],[126.97618737019903,37.56947382726747],[126.97612127107766,37.56945624380012],[126.97610191818401,37.56944677926091],[126.97609705695257,37.569428848551986],[126.9760173742366,37.56941252348406],[126.97601261752692,37.56942009075623],[126.97591287237931,37.56938402964332],[126.97588619597363,37.56937438328249],[126.97582784085502,37.56935269282601],[126.975781729718,37.56940721058086],[126.97564688105258,37.569377926025886],[126.97555395617604,37.569357786563025],[126.97551929916168,37.56934965202387],[126.97540618282464,37.569323273159014],[126.97531934779336,37.56930339614465],[126.97514678749113,37.56926271415424],[126.97514048287414,37.56926200096523],[126.97497894235389,37.569236637988276],[126.97486462444986,37.56921609673685],[126.97470495964181,37.56920046447962],[126.9744565141916,37.56922516694655],[126.97438710138312,37.56923259317735],[126.97437702625324,37.5692351496678],[126.97428285662485,37.56924649845146],[126.97429461009582,37.569328797412965],[126.97421411469962,37.56933851850549],[126.97420387022989,37.569339786528985],[126.97392043612854,37.569333584886486],[126.97372527092757,37.56932571852802],[126.97347775221479,37.56932211911769],[126.97330311810961,37.56932025751636],[126.97320595354107,37.5693185133685],[126.97320554091509,37.56930216033611],[126.97320140788526,37.56924624402502],[126.97319393369042,37.569165639838076],[126.97313645229345,37.56917064453753],[126.97296791316012,37.56918582159019],[126.972959762135,37.569188738820216],[126.97288102277416,37.56919437795281],[126.97287752855007,37.56918537623421],[126.97286697804647,37.56915816383403],[126.97285595406922,37.569125914794384],[126.97285052585849,37.56911271400081],[126.97282274320739,37.569037393655876],[126.97280784016965,37.568996232895756],[126.97259200132528,37.56906142977032],[126.97248965901507,37.5689271754421],[126.97244261809567,37.568863743312164],[126.97241840759547,37.568830986428544],[126.97245340737994,37.56874202247037],[126.9725000449631,37.568619490542176],[126.97254602644063,37.568495507840986],[126.9725517280306,37.56847478651151],[126.97248984053734,37.56845940946271],[126.97248983167407,37.56848224951133],[126.97160411452317,37.56848202841834],[126.9715805362053,37.56853957756737],[126.97157700074918,37.56854921724437],[126.97151260966754,37.568708585704336],[126.9714084852518,37.568705216529466],[126.97129328667305,37.568739631871466],[126.97122310019176,37.56875718315149],[126.97119704052263,37.568819795137735],[126.97117213814033,37.56881978873967],[126.97108724842026,37.56880805404405],[126.97103971706089,37.56878461609159],[126.97098653382608,37.568742255907296],[126.97094693190623,37.56870440415704],[126.97089997358897,37.568663937620045],[126.97089035559108,37.568655736133096],[126.97076812928283,37.5686034470485],[126.97068154198732,37.56859171161864],[126.97060536920587,37.5685780507379],[126.97053705100997,37.568566770478135],[126.9704815692952,37.5685543853385],[126.97042203575158,37.56854095395936],[126.97038694955934,37.56853278176012],[126.97034280947452,37.568521066276496],[126.97027984261214,37.568489262769845],[126.9702638743663,37.56848168123309],[126.9702527158362,37.56847638046813],[126.97003055531806,37.568364797107996],[126.96997309112344,37.568329967584],[126.96994733433088,37.56831649092559],[126.96990476716607,37.568306298368476],[126.96983243400939,37.568287943867894],[126.96978622269602,37.568276344748334],[126.96976129181313,37.56829057365892],[126.9696949089816,37.56825411081119],[126.96966013243153,37.56823699166598],[126.96960954633225,37.568212083700494],[126.96956168730493,37.56818923971446],[126.96951930566532,37.568169010059464],[126.96952166722713,37.5681257722739],[126.96950791212303,37.568157654519176],[126.96948310655414,37.56819640830498],[126.96942668097142,37.5682744275714],[126.96942510666965,37.56827660753498],[126.96936431348809,37.56824526363369],[126.9692904421168,37.568198311015635],[126.9693006294595,37.568171824741974],[126.96927430608979,37.56813393100054],[126.96917400541253,37.568216127751676],[126.96917018097358,37.56821279304745],[126.96915505528469,37.56822035720335],[126.969114524837,37.56823836585096],[126.96910077954203,37.5682471647326],[126.9689204090851,37.56806381802321],[126.96881205365217,37.56795384946925],[126.96874442910925,37.56788554481554],[126.96859475506142,37.56773411011051],[126.96853105695904,37.567669617607535]],[[127.00393865632564,37.57569369478617],[127.00399331363198,37.57569369365326],[127.00394141002582,37.575693694729694],[127.00393865632564,37.57569369478617]],[[127.00979443398901,37.57135382346045],[127.00979417366997,37.571354120804656],[127.00978937474322,37.57135959013683],[127.00979443398901,37.57135382346045]]],[[[127.02327049196114,37.57802181215653],[127.02322163228725,37.57802281223408],[127.02318163984253,37.57807377938977],[127.02322882488718,37.57811451334263],[127.02325618242816,37.57813788891439],[127.023261703012,37.57812445418555],[127.0232845402326,37.578058416659],[127.02328630829376,37.5779876348137],[127.02327049196114,37.57802181215653]]]]}}]}
