{"type":"FeatureCollection","features":[{"type":"Feature","properties":{"areaCode":"POI002","areaName":"동대문 관광특구","category":"관광특구","district":"종로구","congestionLevel":"정보없음","originalAreaM2":610693,"jongnoAreaM2":333,"jongnoOverlapRatio":0.0005,"labelLongitude":127.0130936,"labelLatitude":37.5697223},"geometry":{"type":"Polygon","coordinates":[[[127.01414987581947,37.56971047831301],[127.01390751809883,37.56970628641317],[127.01348533728152,37.56969917611347],[127.01307637771811,37.56969281984053],[127.01290219670132,37.56970521633868],[127.01250058861088,37.56973404995512],[127.01238442225532,37.56974364310377],[127.01414987581947,37.56971047831301]]]}},{"type":"Feature","properties":{"areaCode":"POI003","areaName":"명동 관광특구","category":"관광특구","district":"종로구","congestionLevel":"정보없음","originalAreaM2":928286,"jongnoAreaM2":647,"jongnoOverlapRatio":0.0007,"labelLongitude":126.977518,"labelLatitude":37.5692688},"geometry":{"type":"MultiPolygon","coordinates":[[[[126.97757515668971,37.56928653563546],[126.97757455279077,37.56927910688662],[126.97757166165206,37.56925845565337],[126.97752676960452,37.56925713109683],[126.97736147447654,37.56925271541209],[126.97757515668971,37.56928653563546]]],[[[126.97815818738813,37.56917314812483],[126.97814922301976,37.56917398662457],[126.97800994760516,37.56918195974903],[126.97791793835505,37.56920037560908],[126.97773587349992,37.56925124490187],[126.97766922823023,37.56928123389423],[126.97815818738813,37.56917314812483]]],[[[126.979578,37.569071],[126.979909,37.569031],[126.98014799999999,37.569019999999995],[126.980587,37.568991999999994],[126.98073450588892,37.56898557133878],[126.98058290667986,37.56898615476034],[126.98056214685079,37.568987043055536],[126.98041412169087,37.56899691854795],[126.97978304781999,37.56903812337049],[126.97972994786747,37.56904196981213],[126.97946068741366,37.569070021633095],[126.97923297275065,37.56908420547224],[126.97920971277456,37.56908559882825],[126.979578,37.569071]]],[[[126.98142100000001,37.569005000000004],[126.98168799999999,37.569012],[126.982023,37.56906300000001],[126.98236700000001,37.569052],[126.982608,37.569019],[126.982699,37.569017],[126.98321899999999,37.568905],[126.98379500000001,37.568788000000005],[126.98393,37.568759],[126.984391,37.568637],[126.985266,37.568484],[126.986284,37.568301],[126.986662,37.568233000000006],[126.98666183492625,37.568231162183245],[126.98663890011288,37.56823241460692],[126.98627897433612,37.56828098602342],[126.98563301745425,37.56841099456977],[126.9852489753158,37.568482228460994],[126.98523513137874,37.56848469526016],[126.98476229754111,37.568569015656415],[126.98437739411438,37.5686375706533],[126.98435624896088,37.56864112648482],[126.98407645455734,37.568713047407925],[126.98380897678025,37.56877732913546],[126.9834406516985,37.568855983638656],[126.9830046908271,37.568943915592726],[126.98284988113296,37.568972578677766],[126.98268416955014,37.56900636644348],[126.98232068623454,37.569043203362845],[126.98204092946222,37.56904425674712],[126.98178562884411,37.569020770641956],[126.98158211288177,37.56900204995773],[126.98137840268681,37.56899041065627],[126.98123138925233,37.56898477233027],[126.98114563480348,37.56898472387563],[126.98142100000001,37.569005000000004]]]]}},{"type":"Feature","properties":{"areaCode":"POI006","areaName":"종로·청계 관광특구","category":"관광특구","district":"종로구","congestionLevel":"정보없음","originalAreaM2":635582,"jongnoAreaM2":634149,"jongnoOverlapRatio":0.9977,"labelLongitude":127.0053803,"labelLatitude":37.570575},"geometry":{"type":"Polygon","coordinates":[[[126.977582,37.57008199999999],[126.97759,37.57020899999999],[126.97762500000002,37.570209000000006],[126.97761999999999,37.570272],[126.97776000000002,37.570272],[126.98325500000001,37.570227],[126.984772,37.570236000000016],[126.98786300000002,37.570255],[126.98803800000002,37.570200000000014],[126.991153,37.570376],[126.99281,37.570432000000004],[126.997792,37.570739],[127.001631,37.570953],[127.00921400000001,37.57108300000001],[127.00922600000001,37.57122199999999],[127.01084200000001,37.57176],[127.01413200000002,37.57253800000001],[127.01435100000002,37.572666],[127.01511000000002,37.572914],[127.015557,37.573045],[127.01563099999998,37.572609],[127.015549,37.572010999999996],[127.01554600000001,37.571960000000004],[127.015545,37.571809],[127.015564,37.57168500000001],[127.015562,37.571435],[127.015554,37.57143700000001],[127.015556,37.571416],[127.015558,37.571416],[127.015551,37.571347],[127.01555300000001,37.571337],[127.015563,37.571307],[127.01557300000002,37.57127499999999],[127.015572,37.571273000000005],[127.01557,37.57122700000001],[127.01557399999999,37.571164],[127.01557999999999,37.571079000000005],[127.01558599999998,37.571015],[127.015614,37.571016],[127.01561000000001,37.57099800000001],[127.01558599999998,37.570999],[127.015589,37.570955000000005],[127.01559,37.570925],[127.015609,37.570925],[127.01562200000001,37.570865999999995],[127.015596,37.570862],[127.01561000000001,37.57064700000001],[127.015627,37.570647],[127.01563000000002,37.570622],[127.015627,37.570598],[127.015633,37.570552000000006],[127.015654,37.570319],[127.01565799999999,37.570257000000005],[127.01566,37.57023000000001],[127.015647,37.570167],[127.015656,37.57008600000001],[127.015638,37.57007],[127.015527,37.569976],[127.01539100000001,37.569974],[127.0149,37.569965],[127.014611,37.569964],[127.01409399999999,37.56996],[127.013567,37.569959000000004],[127.01269100000002,37.569959000000004],[127.012071,37.56995599999999],[127.011359,37.56995500000001],[127.011225,37.569962],[127.010601,37.56992],[127.01018700000002,37.56993400000001],[127.01000000000002,37.56992399999999],[127.00995300000001,37.569924],[127.00975500000001,37.569883],[127.009236,37.56989200000001],[127.008909,37.569864],[127.00853000000001,37.56985000000001],[127.00749100000002,37.56978500000001],[127.00713600000002,37.569781000000006],[127.00706,37.569795000000006],[127.006972,37.56979900000002],[127.006896,37.569804],[127.00686699999999,37.569822],[127.006751,37.569813],[127.006669,37.569776000000005],[127.00657599999998,37.569762000000004],[127.00607400000001,37.56973899999999],[127.0051,37.569734000000004],[127.00445200000001,37.569734],[127.00414900000001,37.569711],[127.003589,37.569697],[127.002842,37.569697],[127.00262600000002,37.569679],[127.002113,37.569697000000005],[127.00150600000002,37.569655000000004],[127.00146500000001,37.56963699999999],[127.00133099999998,37.56960899999999],[127.00119700000002,37.56954399999999],[127.00074799999999,37.569464999999994],[126.99882300000002,37.56906600000001],[126.99791300000001,37.568926],[126.99779000000001,37.568903],[126.996326,37.568708],[126.996314,37.568685],[126.99626800000001,37.568685],[126.99624999999999,37.568703],[126.99508899999998,37.568606],[126.993666,37.56849],[126.99333400000002,37.56849],[126.99225999999999,37.568392],[126.991426,37.56829400000001],[126.99014299999999,37.568187],[126.98961800000001,37.568149999999996],[126.98943400000002,37.568146],[126.98925,37.568146],[126.98902900000002,37.568127000000004],[126.988845,37.56812899999999],[126.988614,37.568138000000005],[126.987634,37.568196],[126.98741300000002,37.56819900000001],[126.98710400000002,37.568226],[126.98660200000002,37.568284000000006],[126.986232,37.568318],[126.985942,37.56837],[126.985395,37.568492],[126.98538499999998,37.568485],[126.98446500000001,37.568638],[126.98405501775954,37.56871819924327],[126.98387517956469,37.56876141898572],[126.983881,37.568775],[126.98377,37.568798],[126.98377,37.56878565254965],[126.9834406516985,37.568855983638656],[126.9830046908271,37.568943915592726],[126.98284988113296,37.568972578677766],[126.98268416955014,37.56900636644348],[126.98232068623454,37.569043203362845],[126.98204092946222,37.56904425674712],[126.98178562884411,37.569020770641956],[126.98158211288177,37.56900204995773],[126.98137840268681,37.56899041065627],[126.98123138925233,37.56898477233027],[126.98097910493199,37.568984629601786],[126.98058290667986,37.56898615476034],[126.98056214685079,37.568987043055536],[126.98041412169087,37.56899691854795],[126.97978304781999,37.56903812337049],[126.97972994786747,37.56904196981213],[126.97946068741366,37.569070021633095],[126.97923297275065,37.56908420547224],[126.97867072121156,37.56911788505853],[126.97846622970445,37.56914433435866],[126.97814922301976,37.56917398662457],[126.97800994760516,37.56918195974903],[126.97791793835505,37.56920037560908],[126.97773587349992,37.56925124490187],[126.97762663757233,37.569300398776626],[126.97757736025201,37.56931364232908],[126.97757542119699,37.56928978942124],[126.97752700000001,37.569314],[126.977512,37.570068],[126.97752900000002,37.570082],[126.977579,37.57008199999999],[126.977582,37.57008199999999]],[[127.00979417366997,37.571354120804656],[127.00978937474322,37.57135959013683],[127.00979443398901,37.57135382346045],[127.00979417366997,37.571354120804656]]]}},{"type":"Feature","properties":{"areaCode":"POI008","areaName":"경복궁","category":"고궁·문화유산","district":"종로구","congestionLevel":"정보없음","originalAreaM2":444986,"jongnoAreaM2":444986,"jongnoOverlapRatio":1.0,"labelLongitude":126.976813,"labelLatitude":37.580207},"geometry":{"type":"Polygon","coordinates":[[[126.973806,37.57954],[126.973733,37.58087400000001],[126.9736,37.583552999999995],[126.97360299999998,37.58358400000001],[126.97387200000001,37.583485],[126.97430800000001,37.583546],[126.97530200000001,37.58370300000001],[126.976688,37.583738],[126.97862,37.583512],[126.97928600000002,37.583391],[126.97943900000001,37.583321000000005],[126.979668,37.58316500000001],[126.979854,37.582939],[126.980029,37.58267],[126.980105,37.58247],[126.98012700000001,37.58219199999999],[126.980116,37.581879],[126.980116,37.581271],[126.980106,37.581019],[126.979615,37.579420999999996],[126.97953800000002,37.579195],[126.979506,37.578950999999996],[126.97943999999998,37.578326],[126.979386,37.576423000000005],[126.978939,37.575902],[126.97685400000002,37.575702],[126.97423300000001,37.57592499999999],[126.973806,37.57954]]]}},{"type":"Feature","properties":{"areaCode":"POI009","areaName":"광화문·덕수궁","category":"고궁·문화유산","district":"종로구","congestionLevel":"정보없음","originalAreaM2":787381,"jongnoAreaM2":477093,"jongnoOverlapRatio":0.6059,"labelLongitude":126.9771651,"labelLatitude":37.5733758},"geometry":{"type":"Polygon","coordinates":[[[126.98244417835508,37.57750655773194],[126.98255270792565,37.57678967203396],[126.98307436479111,37.57577955073156],[126.9829819210311,37.575595513535355],[126.98289743306272,37.5754192992401],[126.98226510066846,37.575467136262326],[126.98128647499695,37.575598793576546],[126.97935976389763,37.57426840581289],[126.98012804487334,37.572483132427216],[126.97932962220607,37.572429718462836],[126.979269484538,37.56908193126427],[126.97923297275065,37.56908420547224],[126.97867072121156,37.56911788505853],[126.97846622970445,37.56914433435866],[126.97814922301976,37.56917398662457],[126.97800994760516,37.56918195974903],[126.97791793835505,37.56920037560908],[126.97773587349992,37.56925124490187],[126.97762663757233,37.569300398776626],[126.97757736025201,37.56931364232908],[126.97757455279077,37.56927910688662],[126.97757166165206,37.56925845565337],[126.97752676960452,37.56925713109683],[126.9773143528525,37.5692514565652],[126.97731309641554,37.569251429277955],[126.97720231470703,37.569249622557244],[126.97700238250405,37.56924613943599],[126.97692595488424,37.56924461889092],[126.97692437018699,37.56924459153119],[126.97672933900543,37.56924193787744],[126.97644591680991,37.56923446289708],[126.97644407396359,37.569295423359364],[126.97643892395898,37.56936206835325],[126.97641841556354,37.56942279059044],[126.97640189024095,37.56941999401309],[126.97637492858027,37.56948422872248],[126.97620016745412,37.56945499936218],[126.97618737019903,37.56947382726747],[126.97612127107766,37.56945624380012],[126.97610191818401,37.56944677926091],[126.97609705695257,37.569428848551986],[126.9760173742366,37.56941252348406],[126.97601261752692,37.56942009075623],[126.97591287237931,37.56938402964332],[126.97588619597363,37.56937438328249],[126.97582784085502,37.56935269282601],[126.975781729718,37.56940721058086],[126.97564688105258,37.569377926025886],[126.97555395617604,37.569357786563025],[126.97551929916168,37.56934965202387],[126.97540618282464,37.569323273159014],[126.97531934779336,37.56930339614465],[126.97514678749113,37.56926271415424],[126.97514048287414,37.56926200096523],[126.97497894235389,37.569236637988276],[126.97486462444986,37.56921609673685],[126.97470495964181,37.56920046447962],[126.9744565141916,37.56922516694655],[126.97438710138312,37.56923259317735],[126.97437702625324,37.5692351496678],[126.97429851281845,37.56924461166222],[126.97440799567265,37.570361112716895],[126.97504027390387,37.570361248087615],[126.9739639274162,37.577507717374594],[126.98244417835508,37.57750655773194]]]}},{"type":"Feature","properties":{"areaCode":"POI010","areaName":"보신각","category":"고궁·문화유산","district":"종로구","congestionLevel":"정보없음","originalAreaM2":160150,"jongnoAreaM2":160150,"jongnoOverlapRatio":1.0,"labelLongitude":126.98335,"labelLatitude":37.570452},"geometry":{"type":"Polygon","coordinates":[[[126.980897,37.571825],[126.981098,37.571989],[126.98123500000001,37.57229199999999],[126.98301100000002,37.57204],[126.98498,37.572489],[126.985394,37.57267900000001],[126.985557,37.572399],[126.98572699999998,37.572424],[126.985883,37.572065],[126.98578300000001,37.572045],[126.985865,37.571736],[126.98563299999999,37.571611],[126.98569600000002,37.570163],[126.985683,37.568475],[126.98440500000001,37.56873],[126.98440500000001,37.568732],[126.98309900000001,37.568984],[126.982603,37.56903299999999],[126.982648,37.569022],[126.98100399999998,37.569164],[126.98070299999999,37.57027200000001],[126.981029,37.570292],[126.98100399999998,37.570612],[126.98053,37.57168800000001],[126.980897,37.571825]]]}},{"type":"Feature","properties":{"areaCode":"POI012","areaName":"창덕궁·종묘","category":"고궁·문화유산","district":"종로구","congestionLevel":"정보없음","originalAreaM2":1106283,"jongnoAreaM2":1106283,"jongnoOverlapRatio":1.0,"labelLongitude":126.9929217,"labelLatitude":37.5791575},"geometry":{"type":"Polygon","coordinates":[[[126.989263,37.57764800000001],[126.989265,37.577647999999996],[126.98926600000001,37.57811099999999],[126.9893,37.578195],[126.98929200000002,37.578338],[126.989282,37.578503],[126.989249,37.57865399999999],[126.98922799999998,37.578759],[126.989225,37.578772],[126.98923599999999,37.578988],[126.989263,37.579018000000005],[126.989289,37.579297],[126.989288,37.579298],[126.98928,37.57950100000001],[126.98928,37.579598],[126.98927899999998,37.57971499999999],[126.989274,37.579882],[126.989253,37.579978],[126.98924199999999,37.580028000000006],[126.98922100000001,37.580133999999994],[126.98919600000002,37.58036899999999],[126.98919400000001,37.58041699999999],[126.98918800000001,37.580641],[126.98918299999998,37.580792],[126.989186,37.58084600000001],[126.98918899999998,37.580862],[126.98920200000002,37.580887999999995],[126.98924599999998,37.580918000000004],[126.989277,37.580913],[126.98927800000001,37.580914],[126.98928499999998,37.58091600000001],[126.989301,37.580921000000004],[126.989314,37.580921],[126.989359,37.58092],[126.989418,37.580921000000004],[126.98942600000001,37.580922],[126.98946700000002,37.58092],[126.989476,37.58092],[126.989508,37.58091900000001],[126.98950900000001,37.581058],[126.989488,37.58106900000001],[126.989487,37.581098],[126.98948599999999,37.58116799999999],[126.98948500000002,37.581216],[126.98950399999998,37.58121899999999],[126.989502,37.581334000000005],[126.989502,37.581347],[126.98949799999998,37.581353],[126.98946,37.581407],[126.989439,37.581405],[126.989436,37.581591],[126.989472,37.581595],[126.98947300000002,37.581607],[126.989478,37.581654],[126.98949,37.581771999999994],[126.989501,37.581793000000005],[126.98957300000001,37.581926],[126.989609,37.581987000000005],[126.989652,37.582056],[126.98967799999998,37.582109],[126.98970499999999,37.58217100000001],[126.989715,37.58221600000001],[126.98972200000001,37.58221900000001],[126.989739,37.58229599999999],[126.98973500000001,37.582297000000004],[126.98973700000002,37.582306],[126.98974,37.58231800000001],[126.989703,37.582423],[126.989682,37.582495],[126.989661,37.58254800000001],[126.989598,37.582637],[126.98955700000002,37.582688999999995],[126.989484,37.582743],[126.989466,37.582767],[126.98944099999999,37.5828],[126.98939500000002,37.582865],[126.98937499999998,37.58291200000001],[126.98937499999998,37.582919],[126.989376,37.582982],[126.989388,37.58309800000001],[126.989382,37.583161],[126.989379,37.583258],[126.989366,37.583318],[126.98936499999999,37.583408],[126.98936899999998,37.58351],[126.98932599999999,37.583682],[126.989264,37.583767],[126.989249,37.583787],[126.98920200000002,37.58386000000001],[126.989135,37.583939],[126.98907700000001,37.58404],[126.989069,37.584052],[126.98904,37.584097],[126.98900200000001,37.584196999999996],[126.98898199999998,37.58425],[126.988958,37.584312],[126.98892,37.58441100000001],[126.98892,37.584414],[126.98892,37.584416999999995],[126.98892,37.584419999999994],[126.98893200000002,37.584480000000006],[126.988877,37.58466399999999],[126.988872,37.58467900000001],[126.988866,37.584703],[126.988845,37.584757],[126.988832,37.584792],[126.988805,37.584863],[126.988794,37.58489],[126.988778,37.585],[126.988774,37.585029],[126.988799,37.585134],[126.98882800000001,37.585307],[126.98886000000002,37.585494000000004],[126.98890000000002,37.585604],[126.988871,37.585606999999996],[126.98871900000002,37.585625],[126.988399,37.585660999999995],[126.988148,37.585611],[126.988112,37.585542],[126.988111,37.585539999999995],[126.98806800000001,37.585545],[126.987963,37.585556000000004],[126.98795400000002,37.585557],[126.98794800000002,37.585708999999994],[126.98794700000002,37.585723],[126.98793900000001,37.58574399999999],[126.98792,37.585792],[126.987917,37.58579999999999],[126.98785100000002,37.58596799999999],[126.98783700000001,37.58601900000001],[126.98778600000001,37.586198],[126.98779,37.58621899999999],[126.987797,37.586262000000005],[126.98780600000002,37.586294],[126.98783999999999,37.586416],[126.987854,37.58650500000001],[126.987875,37.586665999999994],[126.98786,37.586697],[126.98781600000001,37.58678499999999],[126.987743,37.58701799999999],[126.98773800000001,37.58703400000001],[126.987704,37.587118000000004],[126.987713,37.587143],[126.987674,37.58725900000001],[126.987727,37.587268],[126.987877,37.587292000000005],[126.98793300000001,37.587313],[126.98797299999998,37.587315],[126.988124,37.587326],[126.98819100000001,37.587325],[126.988408,37.587438],[126.98873100000002,37.58760699999999],[126.98877100000001,37.587607],[126.98932900000001,37.58763100000001],[126.98937400000001,37.587636],[126.989466,37.587552],[126.98953099999999,37.587492000000005],[126.98958799999998,37.587466],[126.989719,37.587408],[126.989964,37.587299],[126.99010100000001,37.587238000000006],[126.99032800000002,37.58714500000001],[126.99033200000001,37.58713100000001],[126.99035599999999,37.587133],[126.99042800000001,37.587104000000004],[126.99049,37.58710500000001],[126.990628,37.587116],[126.990991,37.587143],[126.991013,37.587145000000014],[126.991552,37.587186],[126.99212400000002,37.58723000000001],[126.992107,37.587236000000004],[126.99229600000001,37.587251],[126.992969,37.587301999999994],[126.992981,37.587303],[126.99306199999998,37.587153],[126.993081,37.587117],[126.99304399999998,37.587084000000004],[126.992981,37.587047000000005],[126.99301000000001,37.587039],[126.992991,37.58702300000001],[126.99317899999998,37.586947],[126.99322999999998,37.58695],[126.99328000000001,37.586952],[126.99331399999998,37.586934],[126.99335200000002,37.58688600000001],[126.993384,37.586846],[126.993486,37.586681000000006],[126.993555,37.586612],[126.99358400000001,37.586582],[126.993609,37.586556],[126.99361000000002,37.586555],[126.99366,37.58650500000001],[126.993671,37.58649599999999],[126.99367400000001,37.586419],[126.993691,37.586386],[126.99375200000001,37.58628800000001],[126.993781,37.58624100000001],[126.99379600000002,37.586218],[126.993864,37.586033],[126.99388700000002,37.585972],[126.99384800000001,37.58596300000001],[126.993928,37.585807],[126.994014,37.585691],[126.99404000000001,37.58565500000001],[126.994062,37.585624],[126.994141,37.58550900000001],[126.994152,37.585493],[126.994246,37.585398],[126.99434,37.585317],[126.994444,37.585225],[126.994495,37.585176000000004],[126.994561,37.58509],[126.994579,37.585095],[126.994687,37.584891000000006],[126.99476900000002,37.58478],[126.99483000000001,37.584706],[126.99483200000002,37.584703000000005],[126.994867,37.584734],[126.99487199999999,37.584731000000005],[126.994836,37.584703],[126.994829,37.58469900000001],[126.99483200000002,37.584694],[126.994874,37.58464000000001],[126.994924,37.584576999999996],[126.994985,37.58449999999999],[126.99504399999998,37.58442500000001],[126.99510000000001,37.584355],[126.99512700000001,37.584323000000005],[126.99517899999998,37.584256],[126.99524400000001,37.584188000000005],[126.99526899999998,37.58416299999999],[126.995416,37.584026],[126.995473,37.58397300000001],[126.995567,37.583885],[126.995684,37.583771999999996],[126.995704,37.583737],[126.995723,37.583714],[126.995834,37.583584],[126.99591300000002,37.58362],[126.99597000000001,37.58355600000001],[126.99599700000002,37.583571],[126.996002,37.583561],[126.996001,37.58355999999999],[126.996007,37.583552],[126.996035,37.583501],[126.99604800000002,37.583445],[126.99606999999999,37.583372],[126.996041,37.583366],[126.99607300000001,37.58329400000001],[126.99613800000002,37.583146],[126.99616300000001,37.583149],[126.99621099999999,37.583004],[126.99624100000001,37.582901],[126.99626,37.582840999999995],[126.996279,37.58284600000001],[126.996282,37.582838],[126.996492,37.58244599999999],[126.99650599999998,37.582344],[126.99652500000002,37.582206],[126.99656,37.581962],[126.99651900000002,37.581667],[126.99651799999998,37.58166200000001],[126.996541,37.581571000000004],[126.99654400000001,37.581558],[126.996668,37.581428],[126.99665900000001,37.581419],[126.99662000000001,37.58138300000001],[126.996537,37.58130800000001],[126.99650500000001,37.581278999999995],[126.996497,37.581273],[126.996488,37.58126399999999],[126.99646600000001,37.581242],[126.996372,37.581129],[126.99635500000001,37.58109999999999],[126.99641500000001,37.5811],[126.996354,37.580999],[126.99633300000002,37.5809],[126.99631300000001,37.580660000000016],[126.996322,37.580555],[126.996362,37.580373],[126.996366,37.580355],[126.996438,37.57994300000001],[126.996542,37.579298],[126.99659500000001,37.57900399999999],[126.996632,37.57876900000001],[126.99672699999999,37.578385000000004],[126.996746,37.578306],[126.996756,37.57827300000001],[126.99687199999998,37.577887000000004],[126.99699400000002,37.577496],[126.997127,37.577071999999994],[126.997165,37.576917],[126.99722000000001,37.576919],[126.997333,37.576923],[126.99736999999999,37.576925],[126.997443,37.576928],[126.997476,37.576933000000004],[126.99754799999998,37.57695199999999],[126.99757100000001,37.576957],[126.997663,37.57698],[126.99763900000002,37.577033],[126.99772700000001,37.577054],[126.99775400000001,37.576994],[126.99779300000002,37.576908],[126.997836,37.576811],[126.997854,37.576769],[126.997855,37.576766],[126.99786899999998,37.57673299999999],[126.997873,37.576724],[126.99789500000001,37.57667300000001],[126.99795800000001,37.576685000000005],[126.998002,37.576693999999996],[126.99801800000002,37.576662000000006],[126.99803699999998,37.576644],[126.99803000000001,37.57663800000001],[126.998034,37.576631],[126.998058,37.57658700000001],[126.99808400000002,37.576564],[126.998189,37.576618],[126.99821900000002,37.576633],[126.998269,37.576642],[126.99833999999998,37.576654999999995],[126.998342,37.576647],[126.998362,37.576651],[126.998426,37.576665999999996],[126.99847,37.576675],[126.99845699999999,37.57671599999999],[126.99842399999999,37.576831000000006],[126.99882200000002,37.576911],[126.998839,37.576848000000005],[126.99884399999999,37.57683000000001],[126.998786,37.576818],[126.9988,37.57672699999999],[126.99880400000002,37.576709],[126.998807,37.57669],[126.99884700000001,37.576639],[126.998864,37.576617],[126.998869,37.576611],[126.998875,37.576603],[126.998884,37.576592],[126.99892,37.576544000000005],[126.99897000000001,37.576479000000006],[126.99898,37.57647000000001],[126.998939,37.576451],[126.99897299999999,37.576399],[126.998978,37.576393],[126.99903999999998,37.576412],[126.999044,37.576359000000004],[126.999046,37.576339],[126.999046,37.576337],[126.999046,37.576328000000004],[126.999047,37.576326],[126.999094,37.576241],[126.999101,37.576229000000005],[126.999101,37.576227],[126.999145,37.576144],[126.99917400000001,37.57614000000001],[126.99927100000001,37.576132],[126.99928799999999,37.57613],[126.999296,37.57613],[126.99930300000001,37.57612900000001],[126.999341,37.576124],[126.99936300000002,37.576133],[126.999386,37.576128000000004],[126.99939400000001,37.576144],[126.99940200000002,37.576159],[126.999416,37.576164000000006],[126.99943,37.576161],[126.99944799999999,37.576159000000004],[126.999458,37.576155],[126.999482,37.576147],[126.999491,37.576144],[126.999532,37.57613],[126.999545,37.576125999999995],[126.999558,37.576088],[126.99958299999999,37.57604200000001],[126.999592,37.576026999999996],[126.999599,37.576015],[126.99958800000002,37.576011],[126.999546,37.575996],[126.999497,37.575973],[126.999458,37.575942],[126.99942900000002,37.57589300000001],[126.99939600000002,37.57589000000001],[126.99933699999998,37.57588700000001],[126.99866900000002,37.575869999999995],[126.99856,37.575869000000004],[126.998392,37.575866000000005],[126.99778400000001,37.575858],[126.997351,37.575863],[126.99649300000002,37.576128000000004],[126.99645699999999,37.576009],[126.996201,37.57594499999999],[126.99576699999999,37.575853000000016],[126.99580900000001,37.575522],[126.99582999999998,37.575401],[126.995859,37.57530599999999],[126.995894,37.575205],[126.995929,37.575140999999995],[126.99604800000002,37.574967],[126.99614,37.574833000000005],[126.99619600000001,37.57475099999999],[126.99621699999999,37.57468500000001],[126.996242,37.574497],[126.99625500000002,37.57444499999999],[126.99630700000002,37.57428199999999],[126.996371,37.574091],[126.99646600000001,37.573669],[126.99659599999998,37.573688],[126.99662000000001,37.573605],[126.99664600000001,37.573588],[126.99667900000001,37.57358299999999],[126.99682099999998,37.573579],[126.996981,37.573581],[126.997204,37.573569000000006],[126.997206,37.573535],[126.997585,37.573532],[126.99759499999999,37.57335200000001],[126.99837000000001,37.573365],[126.99837600000001,37.573354],[126.99847400000002,37.573251000000006],[126.99862800000001,37.57308999999999],[126.99872600000002,37.572986],[126.9988,37.572916],[126.99892500000001,37.57277100000002],[126.998936,37.572758],[126.999016,37.572667],[126.99919599999998,37.572456],[126.999205,37.572444999999995],[126.999284,37.572351],[126.999332,37.572295000000004],[126.99946599999998,37.572182],[126.99952500000002,37.572128],[126.99956800000001,37.57209000000001],[126.99958899999999,37.572063],[126.999597,37.572052],[126.999618,37.572025],[126.999624,37.57201500000001],[126.999644,37.571976],[126.99966699999999,37.571933],[126.999686,37.571894],[126.99971100000002,37.571853],[126.99974400000002,37.5718],[126.999746,37.571796],[126.999758,37.57177800000001],[126.999777,37.571754],[126.99981399999999,37.571709000000006],[126.999837,37.571681000000005],[126.99986400000002,37.57162900000001],[126.999882,37.571592],[126.99989199999999,37.571573],[126.99993099999999,37.57151700000001],[126.999965,37.57146700000001],[126.999995,37.57142300000001],[127.000028,37.571374],[127.000044,37.571351],[127.000048,37.57134800000001],[127.00008700000001,37.571314],[127.00012900000002,37.57127800000001],[127.000169,37.57124300000001],[127.000179,37.571234999999994],[127.00019200000001,37.571203000000004],[127.00020700000002,37.57116700000001],[127.00022500000001,37.571123],[127.00024300000001,37.571074],[127.00025700000002,37.57103000000001],[127.000272,37.570992000000004],[127.00029600000002,37.57093],[127.000308,37.570897],[127.000317,37.570885],[127.00025700000002,37.570885],[126.999998,37.570866],[126.999532,37.570829999999994],[126.99921600000002,37.570808],[126.99895100000002,37.570786],[126.998843,37.57077700000001],[126.99775400000001,37.570715],[126.99746399999998,37.570699],[126.997074,37.570677],[126.996843,37.570664],[126.996444,37.570640000000004],[126.99571500000002,37.570596],[126.995563,37.570589],[126.99534699999998,37.570575],[126.994783,37.570556],[126.99443,37.570532],[126.994162,37.570519],[126.993786,37.570515],[126.993636,37.57049800000001],[126.99326200000002,37.570486],[126.992729,37.570469],[126.99264699999999,37.570465],[126.992132,37.57045099999999],[126.992088,37.570828],[126.992057,37.570953],[126.99200799999998,37.571144],[126.991955,37.571313999999994],[126.991939,37.571367],[126.99189300000002,37.571512000000006],[126.991741,37.571989],[126.991735,37.572008000000004],[126.99153200000002,37.572590999999996],[126.99145200000001,37.57284299999999],[126.991445,37.57286500000001],[126.991273,37.573417],[126.99122999999999,37.573562],[126.99116400000001,37.573786],[126.991148,37.57384],[126.99105500000002,37.574153],[126.99102299999998,37.574258],[126.99097100000002,37.574434999999994],[126.990883,37.57472800000001],[126.990853,37.57482799999998],[126.99061,37.575655000000005],[126.99055100000001,37.575856],[126.99044599999999,37.576205],[126.990438,37.576233],[126.99030499999999,37.57666899999999],[126.990171,37.577064],[126.990041,37.577449],[126.98929300000002,37.57740700000001],[126.989263,37.57764800000001]]]}},{"type":"Feature","properties":{"areaCode":"POI024","areaName":"동대문역","category":"인구밀집지역","district":"종로구","congestionLevel":"정보없음","originalAreaM2":196835,"jongnoAreaM2":196693,"jongnoOverlapRatio":0.9993,"labelLongitude":127.0095881,"labelLatitude":37.57166},"geometry":{"type":"Polygon","coordinates":[[[127.00929347387887,37.569746513226264],[127.00926933203861,37.56974579642924],[127.00916399999998,37.569743],[127.00913600000001,37.569742000000005],[127.00910564886945,37.56974024897605],[127.00907555138754,37.56973900000037],[127.009065,37.56973899999999],[127.009018,37.56973700000001],[127.00899599999998,37.569736],[127.00899239246137,37.56973554905773],[127.00896745816111,37.569734514318625],[127.00895099999998,37.569734],[127.00893295665193,37.56973308254478],[127.00888277392849,37.56973100000007],[127.00888100000002,37.569731000000004],[127.0088623862834,37.569730153922244],[127.00883458075631,37.56972900000004],[127.00882900000002,37.569729],[127.00882671500493,37.569728673572186],[127.00878772043833,37.56972705529402],[127.008555,37.569717999999995],[127.00851450317776,37.56971627674019],[127.0084548847658,37.56971385778621],[127.00841800000002,37.56971299999999],[127.00837399999999,37.569711000000005],[127.008294,37.569708],[127.00823600000001,37.569706],[127.00817200000002,37.569703],[127.008151,37.569702],[127.008104,37.5697],[127.007989,37.56969500000001],[127.00781,37.56968700000001],[127.00758100000002,37.569675999999994],[127.00727200000001,37.569658],[127.00694200000001,37.56964599999999],[127.00690500000002,37.569644],[127.006734,37.569635],[127.006734,37.569658],[127.00673100000002,37.569829],[127.006715,37.57008199999999],[127.006727,37.570461],[127.00670100000002,37.571094],[127.00668000000002,37.57157],[127.00667400000002,37.571676],[127.00666800000002,37.571781],[127.006667,37.5718],[127.00690900000001,37.571963999999994],[127.007102,37.57234400000001],[127.007345,37.572867],[127.00745800000001,37.573008],[127.007553,37.573126],[127.00844300000001,37.57310100000001],[127.00845500000001,37.573194],[127.00860400000002,37.573461],[127.008676,37.573461],[127.009025,37.573524],[127.00902200000002,37.57352000000001],[127.009036,37.573524],[127.00919600000002,37.573532],[127.009324,37.573553],[127.009437,37.57357400000001],[127.00956800000002,37.573602],[127.009612,37.57360499999999],[127.00969800000001,37.573612],[127.010008,37.573653],[127.010011,37.57365399999999],[127.010231,37.573688000000004],[127.010336,37.573693],[127.010612,37.573686],[127.010879,37.57363699999999],[127.010949,37.573631999999996],[127.01113200000002,37.573612999999995],[127.011227,37.573559],[127.011228,37.573557],[127.01126100000002,37.573499],[127.01130100000002,37.573416],[127.01134900000001,37.57331500000001],[127.0114,37.573239],[127.011449,37.573186],[127.01164699999998,37.57302],[127.01166700000002,37.573],[127.011703,37.57296000000001],[127.01185900000002,37.572732],[127.01200999999999,37.57259599999999],[127.012155,37.57252],[127.01223499999999,37.572478000000004],[127.012287,37.57244600000001],[127.012572,37.572127],[127.012333,37.57206600000001],[127.01250800000001,37.571644000000006],[127.01254799999998,37.571527999999994],[127.012579,37.571359],[127.01258699999998,37.57109199999999],[127.01259899999998,37.57070499999999],[127.01259500000002,37.570519],[127.01259400000002,37.570491],[127.012582,37.570266],[127.01259800000001,37.570158],[127.01263,37.56997200000001],[127.01264500000002,37.56979],[127.01264300000001,37.569748],[127.01236296435142,37.56974541510888],[127.01210726653437,37.569766530464065],[127.01115734225205,37.56977097261751],[127.01003479690034,37.569775951288364],[127.00983467981898,37.569765036568434],[127.00951529312493,37.569753423545556],[127.00929347387887,37.569746513226264]],[[127.00979417366997,37.571354120804656],[127.00978937474322,37.57135959013683],[127.00979443398901,37.57135382346045],[127.00979417366997,37.571354120804656]]]}},{"type":"Feature","properties":{"areaCode":"POI054","areaName":"혜화역","category":"인구밀집지역","district":"종로구","congestionLevel":"정보없음","originalAreaM2":212007,"jongnoAreaM2":212007,"jongnoOverlapRatio":1.0,"labelLongitude":127.0013071,"labelLatitude":37.582339},"geometry":{"type":"Polygon","coordinates":[[[127.00442899999999,37.57994],[127.00335300000002,37.579756999999994],[127.00334700000002,37.579755999999996],[127.002128,37.579578],[127.002136,37.58088000000001],[127.002128,37.58088],[127.00198199999998,37.581756],[127.00095,37.581748],[127.000956,37.581331],[126.999989,37.581168],[126.999966,37.58116199999999],[126.999857,37.581136],[126.999828,37.581156],[126.99977400000002,37.58119500000001],[126.99977200000001,37.58119500000001],[126.999764,37.58120199999999],[126.999758,37.581206],[126.999752,37.58121],[126.99971700000002,37.581236000000004],[126.99970900000001,37.581236000000004],[126.999581,37.581239],[126.99943500000002,37.58124300000001],[126.99936300000002,37.58124500000001],[126.999352,37.581245999999986],[126.99934500000002,37.581351000000005],[126.998882,37.581399],[126.998253,37.581351000000005],[126.998105,37.581807],[126.997762,37.581881],[126.997539,37.58199700000001],[126.99752300000002,37.582007],[126.99772399999999,37.582151],[126.997845,37.58225199999999],[126.99813,37.582476],[126.99835800000001,37.582654],[126.998504,37.582769],[126.998613,37.582874999999994],[126.998785,37.583032],[126.999142,37.58335600000001],[126.99931200000002,37.583509],[126.99949800000002,37.583687000000005],[126.999926,37.584086],[127.000079,37.584243],[127.00050399999999,37.58472],[127.000615,37.58485300000001],[127.00064200000001,37.584883],[127.000833,37.585100999999995],[127.00160000000001,37.58516100000001],[127.001665,37.585128],[127.002163,37.58506499999999],[127.002917,37.584704],[127.002996,37.58458699999999],[127.003001,37.584485],[127.003002,37.58448400000001],[127.00287000000002,37.58436700000001],[127.002884,37.584153],[127.003092,37.584002000000005],[127.00384699999998,37.583858000000006],[127.00416100000001,37.583619],[127.004249,37.583346],[127.00427800000001,37.583310999999995],[127.00430500000002,37.58325300000001],[127.00437,37.58310900000001],[127.004455,37.583118],[127.004586,37.583102],[127.00460299999999,37.582812999999994],[127.004619,37.582707000000006],[127.004658,37.58242599999999],[127.00465999999999,37.582091],[127.00467700000002,37.581717000000005],[127.004674,37.581625],[127.004638,37.581527],[127.004556,37.581318],[127.004509,37.581225],[127.004205,37.58122],[127.00434400000002,37.58055],[127.004411,37.580490000000005],[127.00442899999999,37.57994]]]}},{"type":"Feature","properties":{"areaCode":"POI060","areaName":"광장(전통)시장","category":"발달상권","district":"종로구","congestionLevel":"정보없음","originalAreaM2":63312,"jongnoAreaM2":63309,"jongnoOverlapRatio":1.0,"labelLongitude":126.9999362,"labelLatitude":37.5699005},"geometry":{"type":"Polygon","coordinates":[[[126.99871899999998,37.57077000000001],[126.998843,37.57077700000001],[126.99895100000002,37.570786],[126.99921600000002,37.570808],[126.999532,37.570829999999994],[126.999998,37.570866],[127.00025700000002,37.570885],[127.00032999999999,37.570885000000004],[127.000358,37.57088499999999],[127.00047100000002,37.5709],[127.001188,37.570953],[127.001458,37.570973],[127.001911,37.57100700000001],[127.00196399999999,37.570391],[127.00203,37.569635000000005],[127.00203397377307,37.56959228193963],[127.00203123165937,37.56959200000003],[127.002029,37.569592],[127.00201,37.56959],[127.00198199234694,37.56958672638427],[127.00193324430248,37.56958134694799],[127.00185882039152,37.56957382134433],[127.001809,37.56956900000001],[127.00172000000002,37.56956],[127.00169414185191,37.56955510056985],[127.00162523255389,37.5695422447455],[127.0014456054133,37.56950925959757],[127.00135862068869,37.56948888392187],[127.001307,37.569477],[127.00115568162002,37.569449190159474],[127.00112247168832,37.5694431264302],[127.00109725737137,37.56943840709292],[127.000788,37.56938099999999],[127.00063699999998,37.56935000000001],[127.00059239777573,37.56934094019102],[127.00050954122997,37.569324264432744],[127.000449766721,37.569312068139055],[127.00037,37.56929600000001],[127.00019800000001,37.569261],[127.0000883348045,37.56923785969507],[126.99997952656908,37.56921532024021],[126.99982542692065,37.56918475746261],[126.99979599999999,37.569179000000005],[126.99975021628102,37.569170025417165],[126.99954138036017,37.56912944053695],[126.99944428382366,37.56911024782364],[126.99935992788166,37.56909352879212],[126.999199,37.569062],[126.99894900000001,37.56901499999999],[126.99872946767573,37.568973653108436],[126.99872641828397,37.5689730846127],[126.99869420377044,37.568967234771925],[126.99854400000001,37.56894],[126.99823,37.568886],[126.99808458387548,37.56886157470954],[126.99801976075338,37.56885088278017],[126.99797297541191,37.56884323112821],[126.997968,37.56889],[126.997879,37.569738],[126.997852,37.570063],[126.99871899999998,37.57077000000001]]]}},{"type":"Feature","properties":{"areaCode":"POI064","areaName":"덕수궁길·정동길","category":"발달상권","district":"종로구","congestionLevel":"정보없음","originalAreaM2":97662,"jongnoAreaM2":5718,"jongnoOverlapRatio":0.0586,"labelLongitude":126.9687582,"labelLatitude":37.5680088},"geometry":{"type":"Polygon","coordinates":[[[126.969995,37.568379],[126.97020131177713,37.56845056209675],[126.97003055531806,37.568364797107996],[126.96997309112344,37.568329967584],[126.96994733433088,37.56831649092559],[126.96990476716607,37.568306298368476],[126.96983243400939,37.568287943867894],[126.96978622269602,37.568276344748334],[126.96976129181313,37.56829057365892],[126.9696949089816,37.56825411081119],[126.96966013243153,37.56823699166598],[126.96960954633225,37.568212083700494],[126.96956168730493,37.56818923971446],[126.96951930566532,37.568169010059464],[126.96952166722713,37.5681257722739],[126.96950791212303,37.568157654519176],[126.96948310655414,37.56819640830498],[126.96942668097142,37.5682744275714],[126.96942510666965,37.56827660753498],[126.96936431348809,37.56824526363369],[126.9692904421168,37.568198311015635],[126.9693006294595,37.568171824741974],[126.96927430608979,37.56813393100054],[126.96917400541253,37.568216127751676],[126.96917018097358,37.56821279304745],[126.96915505528469,37.56822035720335],[126.969114524837,37.56823836585096],[126.96910077954203,37.5682471647326],[126.9689204090851,37.56806381802321],[126.96881205365217,37.56795384946925],[126.96874442910925,37.56788554481554],[126.96859475506142,37.56773411011051],[126.96853105695904,37.567669617607535],[126.96847453200803,37.56761249716177],[126.96843414083357,37.56757190533635],[126.96833523396954,37.5674715705485],[126.96826418188732,37.56740042653762],[126.96816955196422,37.5673048230016],[126.96810879605965,37.567243646734454],[126.96806461519202,37.56719907133908],[126.96804008384004,37.56717434300016],[126.96790999999999,37.56725699999999],[126.969376,37.568746000000004],[126.96975399999998,37.568631],[126.969995,37.568379]]]}},{"type":"Feature","properties":{"areaCode":"POI066","areaName":"북촌한옥마을","category":"발달상권","district":"종로구","congestionLevel":"정보없음","originalAreaM2":1125402,"jongnoAreaM2":1125402,"jongnoOverlapRatio":1.0,"labelLongitude":126.9846565,"labelLatitude":37.58289},"geometry":{"type":"Polygon","coordinates":[[[126.98873200000001,37.58383500000001],[126.988742,37.58381299999999],[126.98875899999999,37.583816],[126.98877100000001,37.583845],[126.98881300000001,37.583872],[126.988786,37.58392],[126.98883699999999,37.583941],[126.988853,37.583932],[126.98886100000001,37.583904],[126.98889,37.58388599999999],[126.988998,37.583954999999996],[126.98902699999998,37.58402],[126.98908000000002,37.584036],[126.98913399999999,37.583944],[126.98920200000002,37.58386000000001],[126.98932900000001,37.583682],[126.98937400000001,37.58351],[126.98937099999999,37.583510000000004],[126.989367,37.583318000000006],[126.98938000000001,37.58325599999999],[126.989388,37.58310000000001],[126.98937499999998,37.582914],[126.98939500000002,37.58286600000001],[126.989487,37.582742],[126.989559,37.582689],[126.98966500000002,37.582545999999994],[126.98974100000001,37.58231299999999],[126.989709,37.582181],[126.989655,37.58205400000001],[126.989568,37.58191200000001],[126.98948599999999,37.581765],[126.989476,37.581644],[126.98944699999998,37.581641],[126.98945299999998,37.58143299999999],[126.989472,37.581395],[126.989487,37.581346999999994],[126.989501,37.581344],[126.98951200000002,37.581133],[126.98950300000001,37.580921000000004],[126.98936,37.58091699999999],[126.989322,37.579986],[126.98928700000002,37.579985],[126.98929300000002,37.579953],[126.989319,37.579952],[126.989328,37.57992800000001],[126.98933200000002,37.579897],[126.989333,37.578963],[126.98968400000001,37.577785000000006],[126.98969600000001,37.577786],[126.98980600000002,37.577402],[126.98933800000002,37.577358000000004],[126.98933500000001,37.577241000000015],[126.988358,37.57721900000001],[126.98795300000002,37.577220999999994],[126.987868,37.577218],[126.987512,37.57718200000001],[126.98725,37.577134],[126.986761,37.57697000000001],[126.984379,37.57584],[126.98412300000001,37.57573800000001],[126.98411999999999,37.575728999999995],[126.98404700000002,37.57571000000001],[126.983445,37.575495000000004],[126.98303299999999,37.575438999999996],[126.98263100000001,37.575410000000005],[126.98234000000001,37.575402],[126.98184700000002,37.57549899999999],[126.981686,37.575535],[126.980951,37.575641],[126.980242,37.575734],[126.98014700000002,37.57574],[126.980015,37.575742999999996],[126.980015,37.57574000000002],[126.980005,37.57573800000001],[126.979971,37.57573699999999],[126.979971,37.575741],[126.979899,37.57573300000001],[126.979846,37.575721],[126.979746,37.575692],[126.979688,37.57567],[126.979656,37.575652],[126.97963,37.575665],[126.979585,37.575676],[126.979537,37.575693],[126.97948400000001,37.57577],[126.979558,37.57588400000001],[126.979461,37.57615200000001],[126.979432,37.57615500000001],[126.97934999999998,37.578016000000005],[126.97941900000001,37.578914999999995],[126.979483,37.579256],[126.980318,37.581798000000006],[126.980423,37.582264],[126.98043600000001,37.58229],[126.98044200000001,37.582324],[126.98044899999998,37.58238200000001],[126.980447,37.582434000000006],[126.98041500000001,37.582532000000015],[126.98039300000002,37.58256200000001],[126.980332,37.582615],[126.980003,37.58283],[126.979366,37.583339],[126.979224,37.583428000000005],[126.979231,37.58344],[126.97926199999999,37.583432],[126.979297,37.58351700000001],[126.979269,37.583529],[126.979264,37.583568],[126.97924600000002,37.583701],[126.97924700000002,37.58371000000001],[126.97923400000002,37.58378100000001],[126.979288,37.583796],[126.979341,37.583821],[126.97948400000001,37.583935000000004],[126.97949099999998,37.583958],[126.97937500000002,37.584481000000004],[126.97932500000002,37.585013],[126.979576,37.585041],[126.97957,37.585097],[126.979717,37.58514400000001],[126.979759,37.58515],[126.979784,37.585151],[126.979778,37.585209],[126.97983,37.58517500000001],[126.980081,37.585341],[126.97983,37.585534],[126.979825,37.585539],[126.979823,37.585755],[126.97977500000002,37.585975000000005],[126.979881,37.58623],[126.979907,37.586322],[126.979835,37.586488],[126.979591,37.58697],[126.979809,37.58749],[126.979821,37.587502],[126.979977,37.587642],[126.979993,37.58765399999999],[126.98005,37.587685],[126.979894,37.587814],[126.979879,37.587790999999996],[126.97979399999998,37.587758000000015],[126.979688,37.58775700000001],[126.979729,37.587892],[126.97988300000002,37.587897000000005],[126.979913,37.587989],[126.979969,37.58803999999999],[126.98004900000001,37.588056],[126.980179,37.58814999999999],[126.980061,37.588243],[126.98005700000002,37.588282],[126.979915,37.588349],[126.97989500000001,37.588418],[126.97987700000002,37.588550999999995],[126.97978100000002,37.58858],[126.97974899999998,37.58863000000001],[126.97973000000002,37.58870600000001],[126.979732,37.58883600000001],[126.979759,37.588866],[126.979678,37.58891200000001],[126.979708,37.589065],[126.97967099999998,37.589195],[126.979627,37.58929500000001],[126.979636,37.589412],[126.97969799999998,37.589458],[126.979772,37.589682999999994],[126.97950400000002,37.589836],[126.97945199999998,37.589801000000016],[126.97927399999999,37.589887000000004],[126.979333,37.58993600000001],[126.979341,37.590092],[126.979303,37.590213],[126.97939400000001,37.590345],[126.979723,37.590354],[126.97988300000002,37.590185999999996],[126.98069699999999,37.590409],[126.980912,37.590306],[126.98111100000001,37.590185999999996],[126.98149900000001,37.59023400000001],[126.98189500000001,37.58943],[126.981771,37.58926199999999],[126.98180800000002,37.589248000000005],[126.981831,37.589065000000005],[126.982362,37.589081],[126.982566,37.58857900000001],[126.98259800000001,37.588595999999995],[126.98313400000002,37.588561],[126.98327400000001,37.588627],[126.98332,37.58868799999999],[126.983425,37.58862100000001],[126.983594,37.588607],[126.98362,37.588602],[126.98375700000001,37.58838900000001],[126.98387300000002,37.588153],[126.98386799999999,37.588084],[126.98348900000002,37.587954],[126.98331500000002,37.587755],[126.98331500000002,37.587667],[126.983367,37.58761100000001],[126.983635,37.587699],[126.98380400000002,37.587695000000004],[126.98394900000001,37.587635],[126.98404800000002,37.587551000000005],[126.98407200000001,37.587458],[126.984244,37.587624000000005],[126.98453100000002,37.587894000000006],[126.98485800000002,37.58795],[126.98509000000001,37.588237],[126.98550999999999,37.588042],[126.98564899999998,37.58807],[126.985911,37.58795],[126.98599900000002,37.587982000000004],[126.985917,37.588348],[126.98606899999999,37.588556999999994],[126.986112,37.588601],[126.9862,37.58862899999999],[126.98623699999999,37.588636],[126.98638900000002,37.588867],[126.98664199999999,37.589025],[126.986817,37.588939],[126.986881,37.588775],[126.987031,37.588693],[126.98723700000001,37.58868799999999],[126.98740100000002,37.588643999999995],[126.98769300000001,37.588396],[126.987826,37.588328],[126.987733,37.588094999999996],[126.987832,37.58786800000001],[126.98769500000002,37.58748799999999],[126.98767199999999,37.58726500000001],[126.98771499999998,37.587143],[126.987701,37.587119000000015],[126.987744,37.58703100000001],[126.987817,37.58677900000001],[126.98787300000001,37.58666500000001],[126.98784300000001,37.586417000000004],[126.987788,37.586200000000005],[126.98784900000001,37.58596699999999],[126.98795,37.585724],[126.98795300000002,37.58555900000001],[126.987836,37.585536000000005],[126.987724,37.58537400000001],[126.987595,37.585236],[126.987551,37.58523799999999],[126.987538,37.585015],[126.98757900000001,37.58490400000001],[126.987254,37.584852],[126.987358,37.584586],[126.98757,37.58402600000001],[126.987583,37.58394],[126.987668,37.583768],[126.988097,37.583706],[126.98810700000001,37.58365800000001],[126.988194,37.583681],[126.98873200000001,37.58383500000001]]]}},{"type":"Feature","properties":{"areaCode":"POI067","areaName":"서촌","category":"발달상권","district":"종로구","congestionLevel":"정보없음","originalAreaM2":613437,"jongnoAreaM2":613437,"jongnoOverlapRatio":1.0,"labelLongitude":126.9688822,"labelLatitude":37.5801375},"geometry":{"type":"Polygon","coordinates":[[[126.96529400000001,37.579626],[126.96506300000001,37.579579],[126.96491600000002,37.57961600000001],[126.964882,37.579693],[126.964905,37.57947999999999],[126.96460400000001,37.57946900000001],[126.964449,37.579577],[126.96395500000001,37.579682],[126.96385,37.57979600000001],[126.96388600000002,37.580083],[126.964098,37.58019200000001],[126.96407,37.580347],[126.96391700000001,37.58044200000001],[126.963873,37.58057199999999],[126.963972,37.580607],[126.964102,37.580685],[126.964135,37.580755],[126.964179,37.580842],[126.96418999999999,37.580955],[126.9642,37.58118100000001],[126.9642,37.58131100000001],[126.96416800000002,37.581519],[126.964102,37.581815],[126.96379600000002,37.58198],[126.963883,37.582058],[126.96408,37.582032],[126.96397099999999,37.582171],[126.963993,37.582266],[126.963992,37.582371],[126.96398200000002,37.58247500000001],[126.96397099999999,37.58257900000001],[126.964025,37.582588],[126.96408,37.582597],[126.964287,37.582657],[126.96438500000001,37.58273599999999],[126.96444,37.582797],[126.96444,37.58287500000001],[126.964494,37.582962],[126.96468,37.582962],[126.96479999999998,37.58299600000001],[126.964975,37.583057],[126.96501800000001,37.583144],[126.964996,37.583292],[126.964964,37.583353],[126.96497399999998,37.583422000000006],[126.96505100000002,37.583492],[126.96505100000002,37.583499999999994],[126.96497399999998,37.583890999999994],[126.965029,37.58391700000001],[126.96516000000001,37.583961000000016],[126.965455,37.584013],[126.965509,37.584004],[126.96579299999999,37.583952000000004],[126.966219,37.584022000000004],[126.96644799999999,37.58414400000001],[126.966623,37.584222],[126.96671,37.58417000000001],[126.96680800000001,37.584134999999996],[126.96696100000001,37.584170000000015],[126.96702600000002,37.584405],[126.967081,37.58437800000001],[126.967223,37.584318],[126.96750700000001,37.58426599999999],[126.967671,37.58423100000001],[126.96792199999999,37.584179],[126.968085,37.584109],[126.96831499999999,37.584092],[126.96862,37.584031],[126.969068,37.58396200000001],[126.97022499999999,37.583797],[126.973238,37.58365],[126.97360299999998,37.583558000000004],[126.97380300000002,37.57952],[126.97423300000001,37.575906],[126.971091,37.576144],[126.970228,37.57621300000001],[126.969682,37.576195000000006],[126.969475,37.576134],[126.969257,37.57620399999999],[126.969038,37.576282],[126.96885300000001,37.576352],[126.96846000000001,37.576499000000005],[126.968296,37.576586000000006],[126.96807799999999,37.576699],[126.96792500000001,37.576846],[126.967761,37.576942],[126.96766300000002,37.577055],[126.96758599999998,37.57722900000002],[126.96758599999998,37.57734200000001],[126.96758599999998,37.577498],[126.967596,37.57757],[126.967235,37.577604],[126.967208,37.57762100000001],[126.96682899999999,37.57762700000001],[126.966676,37.577691],[126.96598800000001,37.577723],[126.965955,37.577833],[126.96600300000001,37.577844],[126.96618999999998,37.577972],[126.96630000000002,37.578021],[126.96646800000002,37.578053000000004],[126.96662700000002,37.578114],[126.96669300000002,37.578217],[126.96689200000002,37.578164],[126.96697300000001,37.578162],[126.96697399999998,37.578224],[126.96718699999998,37.578222],[126.967298,37.57817900000001],[126.967272,37.57804999999999],[126.967605,37.578021],[126.967614,37.57788800000001],[126.967677,37.577884000000005],[126.967683,37.577906],[126.96770800000002,37.577936],[126.968157,37.57792800000001],[126.968175,37.578052],[126.96844199999998,37.578026],[126.96848099999998,37.578202000000005],[126.96819700000002,37.578245],[126.968175,37.57829699999999],[126.968164,37.578323],[126.968164,37.57840199999999],[126.968164,37.57848899999999],[126.96818599999999,37.578584],[126.96821899999999,37.57867999999999],[126.968241,37.578775],[126.968295,37.578853],[126.96835,37.578992],[126.96826199999998,37.579105],[126.968175,37.579236],[126.967935,37.57913099999999],[126.967935,37.579071],[126.967902,37.579053],[126.96783700000002,37.578992],[126.96776000000001,37.57896600000001],[126.967629,37.578992],[126.96746500000002,37.57902700000001],[126.96746500000002,37.579279],[126.967454,37.579531],[126.96739999999998,37.579687],[126.966941,37.57958299999999],[126.966461,37.579583],[126.966461,37.57942599999999],[126.96635199999999,37.579381000000005],[126.966217,37.579358000000006],[126.9662,37.57944],[126.96609900000001,37.579440000000005],[126.965773,37.57935700000001],[126.965737,37.57944500000001],[126.965674,37.579381],[126.965659,37.57945600000001],[126.96566,37.579556],[126.96529400000001,37.579626]]]}},{"type":"Feature","properties":{"areaCode":"POI078","areaName":"인사동","category":"발달상권","district":"종로구","congestionLevel":"정보없음","originalAreaM2":340493,"jongnoAreaM2":340493,"jongnoOverlapRatio":1.0,"labelLongitude":126.9852776,"labelLatitude":37.573847},"geometry":{"type":"Polygon","coordinates":[[[126.98420799999998,37.57597299999999],[126.985397,37.576587],[126.98627900000001,37.576879],[126.98663599999999,37.577042],[126.98685499999999,37.57717400000001],[126.98739300000001,37.577334],[126.99005299999999,37.577413],[126.990606,37.575666999999996],[126.98853100000001,37.575431],[126.988655,37.574752],[126.988356,37.574725],[126.988354,37.574711],[126.98817600000001,37.574676],[126.98818,37.57460300000001],[126.98787899999999,37.574541999999994],[126.987869,37.57439200000001],[126.987261,37.574185],[126.98767100000002,37.57350900000001],[126.987875,37.573028],[126.98781099999998,37.572603],[126.98765100000001,37.57162600000001],[126.987699,37.570192999999996],[126.984091,37.570187],[126.983992,37.57018999999999],[126.98330600000001,37.570187],[126.98330600000001,37.570195999999996],[126.98313800000001,37.570188],[126.983142,37.571059999999996],[126.98314000000002,37.571059999999996],[126.98320400000001,37.57203599999999],[126.983002,37.575222],[126.98304299999998,37.575505],[126.98304800000001,37.575506000000004],[126.98309500000002,37.575745],[126.98420799999998,37.57597299999999]]]}},{"type":"Feature","properties":{"areaCode":"POI088","areaName":"광화문광장","category":"공원","district":"종로구","congestionLevel":"정보없음","originalAreaM2":138676,"jongnoAreaM2":138676,"jongnoOverlapRatio":1.0,"labelLongitude":126.9769669,"labelLatitude":37.5728655},"geometry":{"type":"Polygon","coordinates":[[[126.974629,37.576032],[126.97815700000001,37.57596000000001],[126.97890700000002,37.57607399999999],[126.979069,37.57618699999999],[126.97913000000001,37.576122],[126.97909,37.57556499999999],[126.97805599999998,37.57543600000001],[126.978138,37.570319999999995],[126.975878,37.570344],[126.975795,37.575387],[126.975258,37.575468],[126.974396,37.575492],[126.974396,37.576161],[126.974629,37.576032]]]}},{"type":"Feature","properties":{"areaCode":"POI116","areaName":"익선동","category":"발달상권","district":"종로구","congestionLevel":"정보없음","originalAreaM2":183976,"jongnoAreaM2":183976,"jongnoOverlapRatio":1.0,"labelLongitude":126.9896953,"labelLatitude":37.572327},"geometry":{"type":"Polygon","coordinates":[[[126.990606,37.575666],[126.992081,37.570845],[126.992129,37.570464000000015],[126.9877,37.570192999999996],[126.98765100000001,37.57162600000001],[126.987875,37.573028],[126.98767100000002,37.57350900000001],[126.987261,37.574185],[126.987869,37.57439200000001],[126.98788,37.57454200000001],[126.98818,37.57460300000001],[126.98817600000001,37.574676],[126.988354,37.574711],[126.988356,37.574725],[126.988655,37.57475099999999],[126.98853100000001,37.575431],[126.990606,37.575666]]]}},{"type":"Feature","properties":{"areaCode":"POI124","areaName":"서대문독립공원","category":"공원","district":"종로구","congestionLevel":"정보없음","originalAreaM2":140896,"jongnoAreaM2":8694,"jongnoOverlapRatio":0.0617,"labelLongitude":126.9576691,"labelLatitude":37.5747147},"geometry":{"type":"Polygon","coordinates":[[[126.95608899999999,37.57633800000001],[126.956445,37.575941],[126.95671900000002,37.575661000000004],[126.9599,37.572781000000006],[126.959865,37.572604],[126.95986309702054,37.57259353363034],[126.95978039446597,37.57267543113762],[126.9597298226918,37.57272670646706],[126.9596438691414,37.57281093636265],[126.95955828943356,37.57289431038914],[126.9595487987583,37.57290253303133],[126.95945831317094,37.57299329333713],[126.95940600550531,37.573050802739715],[126.95936543901051,37.5730837914329],[126.95918786653776,37.573258555499734],[126.95900353350746,37.57343632615758],[126.95893708159923,37.573502506762004],[126.95879107335867,37.573646837236424],[126.95865123748482,37.573785025034205],[126.95855113435697,37.57388392606334],[126.95845360371683,37.57397744004017],[126.95833757734154,37.57408798484107],[126.95833757137484,37.574098319163106],[126.95810668035294,37.57428588310719],[126.95804870670564,37.57433077599008],[126.95775098146991,37.574574211850155],[126.95774853662687,37.57457368837118],[126.95739988019994,37.57485514412003],[126.95740101143625,37.57485646899393],[126.95735131495145,37.57489632810428],[126.95726835497909,37.57496328543396],[126.95724879593979,37.57497859488289],[126.9571726876659,37.57504022987939],[126.95709143675315,37.57510714267561],[126.9570507892768,37.57513946380038],[126.95696908599277,37.5752052771365],[126.95691464339014,37.57524928782008],[126.9568399857152,37.57530731018889],[126.95675593748611,37.57537526683735],[126.9566951524042,37.575424086284386],[126.95663511412111,37.575473338457435],[126.9565778521452,37.5755177353361],[126.95651207184781,37.57557110277064],[126.95647714336081,37.5755988668808],[126.9563731620078,37.57568129450832],[126.95636999003348,37.575685086450754],[126.95630872555444,37.57575832226128],[126.95629016828427,37.57578245259581],[126.95625089090446,37.575831739551674],[126.95617272139445,37.575929466643096],[126.9561190910485,37.57599510996375],[126.95603281121194,37.57610040213119],[126.9559883906071,37.57615533620349],[126.95589747614133,37.57626754606127],[126.95583915478025,37.576339548405784],[126.95578234015588,37.57640953309353],[126.95576314894716,37.57643311349482],[126.95567181348017,37.576547719635315],[126.95563369136849,37.57659473634083],[126.95557641159515,37.57659202912309],[126.95552683977573,37.57657298097831],[126.9555060374544,37.57656543161208],[126.95546315446997,37.57654894485003],[126.9554490743554,37.57654487590543],[126.95538500961379,37.576623170390484],[126.955724,37.576786],[126.95608899999999,37.57633800000001]]]}},{"type":"Feature","properties":{"areaCode":"POI129","areaName":"송현녹지광장","category":"공원","district":"종로구","congestionLevel":"정보없음","originalAreaM2":294920,"jongnoAreaM2":294920,"jongnoOverlapRatio":1.0,"labelLongitude":126.9844283,"labelLatitude":37.5783216},"geometry":{"type":"Polygon","coordinates":[[[126.98188345785765,37.57970217415694],[126.98221153334956,37.57958760331324],[126.98220354734204,37.5795239239211],[126.98252359809113,37.57950486828075],[126.98294766511921,37.579479459025094],[126.98377979601854,37.57942863374532],[126.98495599153149,37.579295065300215],[126.9851320645674,37.579053110475094],[126.98534807823026,37.57913591913604],[126.98566010830896,37.57920600346483],[126.98619616593064,37.579301584654026],[126.9864281930217,37.57933345065385],[126.98675623624993,37.579352591370444],[126.98771637292377,37.579352695184376],[126.98830045606934,37.57935275451753],[126.98881253277659,37.579327332881995],[126.98930279224693,37.57926925202293],[126.98924408108415,37.57891849932383],[126.98931774822879,37.57741029210883],[126.9879515839957,37.577351702668246],[126.98748150310864,37.57735165375445],[126.98714364453265,37.57728146794886],[126.98664421956074,37.57708265559778],[126.98476409098569,37.576158792803284],[126.98402965875663,37.57588978927941],[126.98344211833196,37.575667568211436],[126.98286923891351,37.57558564536962],[126.98245792237567,37.575608968136784],[126.98201722057969,37.57565566816921],[126.98122394187088,37.57579584368754],[126.98038659707598,37.57591262338848],[126.98006341958042,37.57592426083698],[126.97960804699645,37.57588910829951],[126.97960797366729,37.57615801473642],[126.97959321049169,37.57642691862261],[126.97954878602418,37.57772467661161],[126.97962189240626,37.57898737990865],[126.97966589668171,37.579232910648145],[126.97991541044675,37.580063055372065],[126.98025516950732,37.58000443163975],[126.98104329657649,37.57987911859417],[126.98158739709106,37.5797721743544],[126.98188345785765,37.57970217415694]]]}},{"type":"Feature","properties":{"areaCode":"POI130","areaName":"시의회 앞","category":"인구밀집지역","district":"종로구","congestionLevel":"정보없음","originalAreaM2":148554,"jongnoAreaM2":23866,"jongnoOverlapRatio":0.1607,"labelLongitude":126.976946,"labelLatitude":37.569914},"geometry":{"type":"Polygon","coordinates":[[[126.97810324209962,37.57034383013813],[126.97809867249659,37.56917688051857],[126.97800994760516,37.56918195974903],[126.97791793835505,37.56920037560908],[126.97773587349992,37.56925124490187],[126.97762663757233,37.569300398776626],[126.97757736025201,37.56931364232908],[126.97757455279077,37.56927910688662],[126.97757166165206,37.56925845565337],[126.97752676960452,37.56925713109683],[126.9773143528525,37.5692514565652],[126.97731309641554,37.569251429277955],[126.97720231470703,37.569249622557244],[126.97700238250405,37.56924613943599],[126.97692595488424,37.56924461889092],[126.97692437018699,37.56924459153119],[126.97672933900543,37.56924193787744],[126.97644591680991,37.56923446289708],[126.97644407396359,37.569295423359364],[126.97643892395898,37.56936206835325],[126.97641841556354,37.56942279059044],[126.97640189024095,37.56941999401309],[126.97637492858027,37.56948422872248],[126.97620016745412,37.56945499936218],[126.97618737019903,37.56947382726747],[126.97612127107766,37.56945624380012],[126.97610191818401,37.56944677926091],[126.97609705695257,37.569428848551986],[126.9760173742366,37.56941252348406],[126.97601261752692,37.56942009075623],[126.97591287237931,37.56938402964332],[126.97588619597363,37.56937438328249],[126.97582784085502,37.56935269282601],[126.97578856912136,37.56939912427773],[126.97579201519183,37.570350827072545],[126.97810324209962,37.57034383013813]]]}}]}
